[
    {
        "area": "Abje B.O",
        "pincode": "401204",
        "district": "PALGHAR"
    },
    {
        "area": "Agarwadi B.O",
        "pincode": "401102",
        "district": "PALGHAR"
    },
    {
        "area": "Agashi S.O",
        "pincode": "401301",
        "district": "PALGHAR"
    },
    {
        "area": "Arnala S.O",
        "pincode": "401302",
        "district": "PALGHAR"
    },
    {
        "area": "Asangaon B.O",
        "pincode": "401103",
        "district": "PALGHAR"
    },
    {
        "area": "Badapokharan B.O",
        "pincode": "401601",
        "district": "PALGHAR"
    },
    {
        "area": "Bandhan B.O",
        "pincode": "401403",
        "district": "PALGHAR"
    },
    {
        "area": "Bassein Road S.O",
        "pincode": "401202",
        "district": "PALGHAR"
    },
    {
        "area": "Bassein S.O",
        "pincode": "401201",
        "district": "PALGHAR"
    },
    {
        "area": "Boisar S.O",
        "pincode": "401501",
        "district": "PALGHAR"
    },
    {
        "area": "Bordi S.O",
        "pincode": "401701",
        "district": "PALGHAR"
    },
    {
        "area": "Borsheti",
        "pincode": "401501",
        "district": "PALGHAR"
    },
    {
        "area": "Chamble B.O",
        "pincode": "421312",
        "district": "PALGHAR"
    },
    {
        "area": "Chinchani S.O",
        "pincode": "401503",
        "district": "PALGHAR"
    },
    {
        "area": "Dahanu Road S.O",
        "pincode": "401602",
        "district": "PALGHAR"
    },
    {
        "area": "Dahanu S.O",
        "pincode": "401601",
        "district": "PALGHAR"
    },
    {
        "area": "Dahanu TPS S.O",
        "pincode": "401608",
        "district": "PALGHAR"
    },
    {
        "area": "Dahisar tymanor B.O",
        "pincode": "401102",
        "district": "PALGHAR"
    },
    {
        "area": "Dapoli",
        "pincode": "401405",
        "district": "PALGHAR"
    },
    {
        "area": "Datiware B.O",
        "pincode": "401102",
        "district": "PALGHAR"
    },
    {
        "area": "Dhekale B.O",
        "pincode": "401102",
        "district": "PALGHAR"
    },
    {
        "area": "Edwan B.O",
        "pincode": "401102",
        "district": "PALGHAR"
    },
    {
        "area": "Gass B.O",
        "pincode": "401203",
        "district": "PALGHAR"
    },
    {
        "area": "Gholvad S.O",
        "pincode": "401702",
        "district": "PALGHAR"
    },
    {
        "area": "Govade B.O",
        "pincode": "401403",
        "district": "PALGHAR"
    },
    {
        "area": "Jawhar S.O",
        "pincode": "401603",
        "district": "PALGHAR"
    },
    {
        "area": "Kasa S.O",
        "pincode": "401607",
        "district": "PALGHAR"
    },
    {
        "area": "Katale B.O",
        "pincode": "401405",
        "district": "PALGHAR"
    },
    {
        "area": "Kaular Budruk B.O",
        "pincode": "401201",
        "district": "PALGHAR"
    },
    {
        "area": "Kelthan B.O",
        "pincode": "401204",
        "district": "PALGHAR"
    },
    {
        "area": "Kelwa mahim S.O",
        "pincode": "401402",
        "district": "PALGHAR"
    },
    {
        "area": "Kelwa S.O (Thane)",
        "pincode": "401401",
        "district": "PALGHAR"
    },
    {
        "area": "Kharekuran B.O",
        "pincode": "401405",
        "district": "PALGHAR"
    },
    {
        "area": "Khoste B.O",
        "pincode": "401605",
        "district": "PALGHAR"
    },
    {
        "area": "Khupri B.O",
        "pincode": "421312",
        "district": "PALGHAR"
    },
    {
        "area": "Kondhale B.O",
        "pincode": "421312",
        "district": "PALGHAR"
    },
    {
        "area": "Kosbad hill S.O",
        "pincode": "401703",
        "district": "PALGHAR"
    },
    {
        "area": "Kudus S.O",
        "pincode": "421312",
        "district": "PALGHAR"
    },
    {
        "area": "Manor S.O",
        "pincode": "401403",
        "district": "PALGHAR"
    },
    {
        "area": "Maswan B.O",
        "pincode": "401403",
        "district": "PALGHAR"
    },
    {
        "area": "Met B.O",
        "pincode": "421312",
        "district": "PALGHAR"
    },
    {
        "area": "Mokhada S.O",
        "pincode": "401604",
        "district": "PALGHAR"
    },
    {
        "area": "Mulgaon B.O",
        "pincode": "401201",
        "district": "PALGHAR"
    },
    {
        "area": "Nadore B.O",
        "pincode": "401405",
        "district": "PALGHAR"
    },
    {
        "area": "Nala B.O",
        "pincode": "401203",
        "district": "PALGHAR"
    },
    {
        "area": "Nallosapare E S.O",
        "pincode": "401209",
        "district": "PALGHAR"
    },
    {
        "area": "Nehroli B.O",
        "pincode": "421312",
        "district": "PALGHAR"
    },
    {
        "area": "Nihe B.O",
        "pincode": "401405",
        "district": "PALGHAR"
    },
    {
        "area": "Nirmal S.O (Thane)",
        "pincode": "401304",
        "district": "PALGHAR"
    },
    {
        "area": "Ondhe B.O",
        "pincode": "401605",
        "district": "PALGHAR"
    },
    {
        "area": "Palghar H.O",
        "pincode": "401404",
        "district": "PALGHAR"
    },
    {
        "area": "Palsai B.O",
        "pincode": "421312",
        "district": "PALGHAR"
    },
    {
        "area": "Papdi S.O",
        "pincode": "401207",
        "district": "PALGHAR"
    },
    {
        "area": "Saloli B.O",
        "pincode": "401201",
        "district": "PALGHAR"
    },
    {
        "area": "Satpati S.O",
        "pincode": "401405",
        "district": "PALGHAR"
    },
    {
        "area": "Shirgaon",
        "pincode": "401405",
        "district": "PALGHAR"
    },
    {
        "area": "Sopara S.O",
        "pincode": "401203",
        "district": "PALGHAR"
    },
    {
        "area": "Talasari S.O",
        "pincode": "401606",
        "district": "PALGHAR"
    },
    {
        "area": "Tarapur App S.O",
        "pincode": "401504",
        "district": "PALGHAR"
    },
    {
        "area": "Tarapur S.O (Thane)",
        "pincode": "401502",
        "district": "PALGHAR"
    },
    {
        "area": "Tarapur Ti S.O",
        "pincode": "401506",
        "district": "PALGHAR"
    },
    {
        "area": "Tembhode B.O",
        "pincode": "401405",
        "district": "PALGHAR"
    },
    {
        "area": "Uchat B.O",
        "pincode": "421312",
        "district": "PALGHAR"
    },
    {
        "area": "Umbarpada S.O",
        "pincode": "401102",
        "district": "PALGHAR"
    },
    {
        "area": "Umrale B.O",
        "pincode": "401203",
        "district": "PALGHAR"
    },
    {
        "area": "Umroli",
        "pincode": "401501",
        "district": "PALGHAR"
    },
    {
        "area": "Urse B.O",
        "pincode": "401602",
        "district": "PALGHAR"
    },
    {
        "area": "Vangaon S.O",
        "pincode": "401103",
        "district": "PALGHAR"
    },
    {
        "area": "Vasai East IE S.O",
        "pincode": "401208",
        "district": "PALGHAR"
    },
    {
        "area": "Vasai Road E S.O",
        "pincode": "401202",
        "district": "PALGHAR"
    },
    {
        "area": "Vasai Road East BPC",
        "pincode": "401202",
        "district": "PALGHAR"
    },
    {
        "area": "Vashala B.O",
        "pincode": "401604",
        "district": "PALGHAR"
    },
    {
        "area": "Veur B.O",
        "pincode": "401405",
        "district": "PALGHAR"
    },
    {
        "area": "Vikramgad S.O",
        "pincode": "401605",
        "district": "PALGHAR"
    },
    {
        "area": "Virar East S.O",
        "pincode": "401305",
        "district": "PALGHAR"
    },
    {
        "area": "Virar S.O",
        "pincode": "401303",
        "district": "PALGHAR"
    },
    {
        "area": "Wada S.O",
        "pincode": "421303",
        "district": "PALGHAR"
    }
]