[
    {
        "area": "Abaloli S.O",
        "pincode": "415726",
        "district": "RATNAGIRI"
    },
    {
        "area": "Adavali B.O",
        "pincode": "415802",
        "district": "RATNAGIRI"
    },
    {
        "area": "Ade B.O",
        "pincode": "415714",
        "district": "RATNAGIRI"
    },
    {
        "area": "Adivare S.O",
        "pincode": "416707",
        "district": "RATNAGIRI"
    },
    {
        "area": "Adkhaltari B.O",
        "pincode": "415714",
        "district": "RATNAGIRI"
    },
    {
        "area": "Adre B.O",
        "pincode": "415604",
        "district": "RATNAGIRI"
    },
    {
        "area": "Adur S.O (Ratnagiri)",
        "pincode": "415705",
        "district": "RATNAGIRI"
    },
    {
        "area": "Agarwaingani B.O",
        "pincode": "415712",
        "district": "RATNAGIRI"
    },
    {
        "area": "Agave B.O",
        "pincode": "415606",
        "district": "RATNAGIRI"
    },
    {
        "area": "Agave B.O",
        "pincode": "415616",
        "district": "RATNAGIRI"
    },
    {
        "area": "Ajiwali B.O",
        "pincode": "416704",
        "district": "RATNAGIRI"
    },
    {
        "area": "Akale B.O",
        "pincode": "415604",
        "district": "RATNAGIRI"
    },
    {
        "area": "Alore S.O",
        "pincode": "415603",
        "district": "RATNAGIRI"
    },
    {
        "area": "Alsure B.O",
        "pincode": "415709",
        "district": "RATNAGIRI"
    },
    {
        "area": "Ambav B.O",
        "pincode": "415608",
        "district": "RATNAGIRI"
    },
    {
        "area": "Ambav B.O",
        "pincode": "415804",
        "district": "RATNAGIRI"
    },
    {
        "area": "Ambavali B.O",
        "pincode": "415804",
        "district": "RATNAGIRI"
    },
    {
        "area": "Ambavali S.O",
        "pincode": "415730",
        "district": "RATNAGIRI"
    },
    {
        "area": "Ambaye B.O",
        "pincode": "415709",
        "district": "RATNAGIRI"
    },
    {
        "area": "Ambdas B.O",
        "pincode": "415605",
        "district": "RATNAGIRI"
    },
    {
        "area": "Ambed Budruk S.O",
        "pincode": "415637",
        "district": "RATNAGIRI"
    },
    {
        "area": "Ambitgaon B.O",
        "pincode": "415641",
        "district": "RATNAGIRI"
    },
    {
        "area": "Ambolgad B.O",
        "pincode": "415806",
        "district": "RATNAGIRI"
    },
    {
        "area": "Amdave B.O",
        "pincode": "415203",
        "district": "RATNAGIRI"
    },
    {
        "area": "Anari B.O",
        "pincode": "415604",
        "district": "RATNAGIRI"
    },
    {
        "area": "Angale B.O",
        "pincode": "416702",
        "district": "RATNAGIRI"
    },
    {
        "area": "Angavali B.O",
        "pincode": "415804",
        "district": "RATNAGIRI"
    },
    {
        "area": "Anjanari B.O",
        "pincode": "415803",
        "district": "RATNAGIRI"
    },
    {
        "area": "Anjanvel B.O",
        "pincode": "415634",
        "district": "RATNAGIRI"
    },
    {
        "area": "Anjarla S.O",
        "pincode": "415714",
        "district": "RATNAGIRI"
    },
    {
        "area": "Ansure B.O",
        "pincode": "416702",
        "district": "RATNAGIRI"
    },
    {
        "area": "Antravali B.O",
        "pincode": "415610",
        "district": "RATNAGIRI"
    },
    {
        "area": "Aravali B.O",
        "pincode": "415608",
        "district": "RATNAGIRI"
    },
    {
        "area": "Are B.O",
        "pincode": "415703",
        "district": "RATNAGIRI"
    },
    {
        "area": "Argaon B.O",
        "pincode": "415643",
        "district": "RATNAGIRI"
    },
    {
        "area": "Asage B.O",
        "pincode": "416712",
        "district": "RATNAGIRI"
    },
    {
        "area": "Asgani B.O",
        "pincode": "415708",
        "district": "RATNAGIRI"
    },
    {
        "area": "Asgoli B.O",
        "pincode": "415703",
        "district": "RATNAGIRI"
    },
    {
        "area": "Ashti B.O",
        "pincode": "415709",
        "district": "RATNAGIRI"
    },
    {
        "area": "Asond B.O",
        "pincode": "415711",
        "district": "RATNAGIRI"
    },
    {
        "area": "Asore B.O",
        "pincode": "415726",
        "district": "RATNAGIRI"
    },
    {
        "area": "Astan B.O",
        "pincode": "415730",
        "district": "RATNAGIRI"
    },
    {
        "area": "Asud B.O",
        "pincode": "415713",
        "district": "RATNAGIRI"
    },
    {
        "area": "Asurda B.O",
        "pincode": "415606",
        "district": "RATNAGIRI"
    },
    {
        "area": "Avashi B.O",
        "pincode": "415722",
        "district": "RATNAGIRI"
    },
    {
        "area": "Ayani B.O",
        "pincode": "415708",
        "district": "RATNAGIRI"
    },
    {
        "area": "Bagave Wadi B.O",
        "pincode": "416704",
        "district": "RATNAGIRI"
    },
    {
        "area": "Bahiravali B.O",
        "pincode": "415727",
        "district": "RATNAGIRI"
    },
    {
        "area": "Bamnoli B.O",
        "pincode": "415701",
        "district": "RATNAGIRI"
    },
    {
        "area": "Bamnoli B.O",
        "pincode": "415804",
        "district": "RATNAGIRI"
    },
    {
        "area": "Bankot B.O",
        "pincode": "415208",
        "district": "RATNAGIRI"
    },
    {
        "area": "Bapere B.O",
        "pincode": "416701",
        "district": "RATNAGIRI"
    },
    {
        "area": "Basani B.O",
        "pincode": "415629",
        "district": "RATNAGIRI"
    },
    {
        "area": "Belari Budruk B.O",
        "pincode": "415804",
        "district": "RATNAGIRI"
    },
    {
        "area": "Beni Budruk B.O",
        "pincode": "416712",
        "district": "RATNAGIRI"
    },
    {
        "area": "Bhade B.O",
        "pincode": "416712",
        "district": "RATNAGIRI"
    },
    {
        "area": "Bhadkamba B.O",
        "pincode": "415801",
        "district": "RATNAGIRI"
    },
    {
        "area": "Bhalavali B.O",
        "pincode": "416707",
        "district": "RATNAGIRI"
    },
    {
        "area": "Bhambed B.O",
        "pincode": "416701",
        "district": "RATNAGIRI"
    },
    {
        "area": "Bharane S.O",
        "pincode": "415621",
        "district": "RATNAGIRI"
    },
    {
        "area": "Bhatgaon B.O",
        "pincode": "415726",
        "district": "RATNAGIRI"
    },
    {
        "area": "Bhatye B.O",
        "pincode": "415612",
        "district": "RATNAGIRI"
    },
    {
        "area": "Bhelsai B.O",
        "pincode": "415605",
        "district": "RATNAGIRI"
    },
    {
        "area": "Bhile B.O",
        "pincode": "415605",
        "district": "RATNAGIRI"
    },
    {
        "area": "Bhoke B.O",
        "pincode": "415639",
        "district": "RATNAGIRI"
    },
    {
        "area": "Bhom B.O",
        "pincode": "415628",
        "district": "RATNAGIRI"
    },
    {
        "area": "Bhoo S.O",
        "pincode": "416713",
        "district": "RATNAGIRI"
    },
    {
        "area": "Bhopan B.O",
        "pincode": "415711",
        "district": "RATNAGIRI"
    },
    {
        "area": "Bijghar B.O",
        "pincode": "415715",
        "district": "RATNAGIRI"
    },
    {
        "area": "Biwali B.O",
        "pincode": "415628",
        "district": "RATNAGIRI"
    },
    {
        "area": "Boraj B.O",
        "pincode": "415709",
        "district": "RATNAGIRI"
    },
    {
        "area": "Borgaon B.O",
        "pincode": "415701",
        "district": "RATNAGIRI"
    },
    {
        "area": "Burambad B.O",
        "pincode": "415608",
        "district": "RATNAGIRI"
    },
    {
        "area": "Burambe Wadi B.O",
        "pincode": "416702",
        "district": "RATNAGIRI"
    },
    {
        "area": "Burondi S.O",
        "pincode": "415720",
        "district": "RATNAGIRI"
    },
    {
        "area": "Chafavali B.O",
        "pincode": "415807",
        "district": "RATNAGIRI"
    },
    {
        "area": "Chafe B.O",
        "pincode": "415620",
        "district": "RATNAGIRI"
    },
    {
        "area": "Chandor B.O",
        "pincode": "415616",
        "district": "RATNAGIRI"
    },
    {
        "area": "Charveli B.O",
        "pincode": "415619",
        "district": "RATNAGIRI"
    },
    {
        "area": "Chave B.O",
        "pincode": "415620",
        "district": "RATNAGIRI"
    },
    {
        "area": "Chickalgaon B.O",
        "pincode": "415712",
        "district": "RATNAGIRI"
    },
    {
        "area": "Chikhali B.O",
        "pincode": "415724",
        "district": "RATNAGIRI"
    },
    {
        "area": "Chikhali B.O",
        "pincode": "415609",
        "district": "RATNAGIRI"
    },
    {
        "area": "Chinchavali B.O",
        "pincode": "415640",
        "district": "RATNAGIRI"
    },
    {
        "area": "Chinchghar B.O",
        "pincode": "415710",
        "district": "RATNAGIRI"
    },
    {
        "area": "Chinchghar B.O",
        "pincode": "415203",
        "district": "RATNAGIRI"
    },
    {
        "area": "Chinchghari B.O",
        "pincode": "415604",
        "district": "RATNAGIRI"
    },
    {
        "area": "Chinchkhari B.O",
        "pincode": "415612",
        "district": "RATNAGIRI"
    },
    {
        "area": "Chindravale B.O",
        "pincode": "415728",
        "district": "RATNAGIRI"
    },
    {
        "area": "Chiplun H.O",
        "pincode": "415605",
        "district": "RATNAGIRI"
    },
    {
        "area": "Chiplun Sub Division",
        "pincode": "415605",
        "district": "RATNAGIRI"
    },
    {
        "area": "Chirni B.O",
        "pincode": "415605",
        "district": "RATNAGIRI"
    },
    {
        "area": "Chiveli B.O",
        "pincode": "415701",
        "district": "RATNAGIRI"
    },
    {
        "area": "Choravane B.O",
        "pincode": "415718",
        "district": "RATNAGIRI"
    },
    {
        "area": "Choravane B.O",
        "pincode": "415803",
        "district": "RATNAGIRI"
    },
    {
        "area": "Dabhil B.O",
        "pincode": "415711",
        "district": "RATNAGIRI"
    },
    {
        "area": "Dabhol S.O",
        "pincode": "415706",
        "district": "RATNAGIRI"
    },
    {
        "area": "Dabhole B.O",
        "pincode": "415803",
        "district": "RATNAGIRI"
    },
    {
        "area": "Dahagaon B.O",
        "pincode": "415203",
        "district": "RATNAGIRI"
    },
    {
        "area": "Dahivali Budruk B.O",
        "pincode": "415606",
        "district": "RATNAGIRI"
    },
    {
        "area": "Dale B.O",
        "pincode": "415805",
        "district": "RATNAGIRI"
    },
    {
        "area": "Dalvatane B.O",
        "pincode": "415604",
        "district": "RATNAGIRI"
    },
    {
        "area": "Dande Adom B.O",
        "pincode": "415612",
        "district": "RATNAGIRI"
    },
    {
        "area": "Dapoli S.O",
        "pincode": "415712",
        "district": "RATNAGIRI"
    },
    {
        "area": "Dapoli Sub Division",
        "pincode": "415712",
        "district": "RATNAGIRI"
    },
    {
        "area": "Dasur B.O",
        "pincode": "416713",
        "district": "RATNAGIRI"
    },
    {
        "area": "Dayal B.O",
        "pincode": "415710",
        "district": "RATNAGIRI"
    },
    {
        "area": "Degaon B.O",
        "pincode": "415711",
        "district": "RATNAGIRI"
    },
    {
        "area": "Dehen B.O",
        "pincode": "415712",
        "district": "RATNAGIRI"
    },
    {
        "area": "Deole Ghera Prachitgad B.O",
        "pincode": "415611",
        "district": "RATNAGIRI"
    },
    {
        "area": "Dervan B.O",
        "pincode": "415606",
        "district": "RATNAGIRI"
    },
    {
        "area": "Deud B.O",
        "pincode": "415620",
        "district": "RATNAGIRI"
    },
    {
        "area": "Devache Gothane B.O",
        "pincode": "416702",
        "district": "RATNAGIRI"
    },
    {
        "area": "Devade B.O",
        "pincode": "415801",
        "district": "RATNAGIRI"
    },
    {
        "area": "Devadhe S.O",
        "pincode": "416712",
        "district": "RATNAGIRI"
    },
    {
        "area": "Devale S.O",
        "pincode": "415807",
        "district": "RATNAGIRI"
    },
    {
        "area": "Devghar B.O",
        "pincode": "415730",
        "district": "RATNAGIRI"
    },
    {
        "area": "Devhare B.O",
        "pincode": "415208",
        "district": "RATNAGIRI"
    },
    {
        "area": "Devihasol B.O",
        "pincode": "416713",
        "district": "RATNAGIRI"
    },
    {
        "area": "Devrukh S.O",
        "pincode": "415804",
        "district": "RATNAGIRI"
    },
    {
        "area": "Devrukh Sub Div.",
        "pincode": "415804",
        "district": "RATNAGIRI"
    },
    {
        "area": "Dhakmoli B.O",
        "pincode": "415641",
        "district": "RATNAGIRI"
    },
    {
        "area": "Dhamanand S.O",
        "pincode": "415718",
        "district": "RATNAGIRI"
    },
    {
        "area": "Dhamandevi B.O",
        "pincode": "415605",
        "district": "RATNAGIRI"
    },
    {
        "area": "Dhamani B.O",
        "pincode": "415709",
        "district": "RATNAGIRI"
    },
    {
        "area": "Dhamani B.O",
        "pincode": "415611",
        "district": "RATNAGIRI"
    },
    {
        "area": "Dhamanse B.O",
        "pincode": "415620",
        "district": "RATNAGIRI"
    },
    {
        "area": "Dhamapur B.O",
        "pincode": "415608",
        "district": "RATNAGIRI"
    },
    {
        "area": "Dhamnavane B.O",
        "pincode": "415604",
        "district": "RATNAGIRI"
    },
    {
        "area": "Dhaulwali B.O",
        "pincode": "415806",
        "district": "RATNAGIRI"
    },
    {
        "area": "Dhopave B.O",
        "pincode": "415703",
        "district": "RATNAGIRI"
    },
    {
        "area": "Dhopeshwar B.O",
        "pincode": "416702",
        "district": "RATNAGIRI"
    },
    {
        "area": "Dhutroli B.O",
        "pincode": "415203",
        "district": "RATNAGIRI"
    },
    {
        "area": "Dingni B.O",
        "pincode": "415611",
        "district": "RATNAGIRI"
    },
    {
        "area": "DISTRICT BAG OFFICE RATNAGIRI",
        "pincode": "415612",
        "district": "RATNAGIRI"
    },
    {
        "area": "Dodavali B.O",
        "pincode": "415728",
        "district": "RATNAGIRI"
    },
    {
        "area": "Donavali B.O",
        "pincode": "415628",
        "district": "RATNAGIRI"
    },
    {
        "area": "Dongar B.O",
        "pincode": "416702",
        "district": "RATNAGIRI"
    },
    {
        "area": "Donivade B.O",
        "pincode": "416702",
        "district": "RATNAGIRI"
    },
    {
        "area": "Dorle B.O",
        "pincode": "415626",
        "district": "RATNAGIRI"
    },
    {
        "area": "Durgawadi B.O",
        "pincode": "415606",
        "district": "RATNAGIRI"
    },
    {
        "area": "Fungus B.O",
        "pincode": "415611",
        "district": "RATNAGIRI"
    },
    {
        "area": "Furus B.O",
        "pincode": "415606",
        "district": "RATNAGIRI"
    },
    {
        "area": "Furus S.O",
        "pincode": "415710",
        "district": "RATNAGIRI"
    },
    {
        "area": "Ganeshgule B.O",
        "pincode": "415616",
        "district": "RATNAGIRI"
    },
    {
        "area": "Ganpatipule B.O",
        "pincode": "415615",
        "district": "RATNAGIRI"
    },
    {
        "area": "Gavade Ambere B.O",
        "pincode": "415626",
        "district": "RATNAGIRI"
    },
    {
        "area": "Gavane B.O",
        "pincode": "416712",
        "district": "RATNAGIRI"
    },
    {
        "area": "Gavkhadi S.O",
        "pincode": "415626",
        "district": "RATNAGIRI"
    },
    {
        "area": "Gharadi B.O",
        "pincode": "415203",
        "district": "RATNAGIRI"
    },
    {
        "area": "Ghativale B.O",
        "pincode": "415803",
        "district": "RATNAGIRI"
    },
    {
        "area": "Ghera Rasalgad B.O",
        "pincode": "415730",
        "district": "RATNAGIRI"
    },
    {
        "area": "Ghodavali B.O",
        "pincode": "415639",
        "district": "RATNAGIRI"
    },
    {
        "area": "Ghude B.O",
        "pincode": "415701",
        "district": "RATNAGIRI"
    },
    {
        "area": "Gimvi B.O",
        "pincode": "415702",
        "district": "RATNAGIRI"
    },
    {
        "area": "Golap B.O",
        "pincode": "415616",
        "district": "RATNAGIRI"
    },
    {
        "area": "Golavali B.O",
        "pincode": "415611",
        "district": "RATNAGIRI"
    },
    {
        "area": "Golawashi B.O",
        "pincode": "416701",
        "district": "RATNAGIRI"
    },
    {
        "area": "Gondhale B.O",
        "pincode": "415628",
        "district": "RATNAGIRI"
    },
    {
        "area": "Gothane Doniwade B.O",
        "pincode": "416705",
        "district": "RATNAGIRI"
    },
    {
        "area": "Gothe B.O",
        "pincode": "415208",
        "district": "RATNAGIRI"
    },
    {
        "area": "Goval B.O",
        "pincode": "416702",
        "district": "RATNAGIRI"
    },
    {
        "area": "Govil B.O",
        "pincode": "416701",
        "district": "RATNAGIRI"
    },
    {
        "area": "Guhagar S.O",
        "pincode": "415703",
        "district": "RATNAGIRI"
    },
    {
        "area": "Guhagar Sub Division",
        "pincode": "415724",
        "district": "RATNAGIRI"
    },
    {
        "area": "Gunade B.O",
        "pincode": "415722",
        "district": "RATNAGIRI"
    },
    {
        "area": "Haral B.O",
        "pincode": "416704",
        "district": "RATNAGIRI"
    },
    {
        "area": "Harche B.O",
        "pincode": "416712",
        "district": "RATNAGIRI"
    },
    {
        "area": "Harcheri B.O",
        "pincode": "416712",
        "district": "RATNAGIRI"
    },
    {
        "area": "Hardakhale B.O",
        "pincode": "416701",
        "district": "RATNAGIRI"
    },
    {
        "area": "Harnai S.O",
        "pincode": "415713",
        "district": "RATNAGIRI"
    },
    {
        "area": "Harpude B.O",
        "pincode": "415804",
        "district": "RATNAGIRI"
    },
    {
        "area": "Hasol Tarf Saundal B.O",
        "pincode": "416702",
        "district": "RATNAGIRI"
    },
    {
        "area": "Hatade B.O",
        "pincode": "416704",
        "district": "RATNAGIRI"
    },
    {
        "area": "Hativ B.O",
        "pincode": "415804",
        "district": "RATNAGIRI"
    },
    {
        "area": "Hatkhamba S.O",
        "pincode": "415619",
        "district": "RATNAGIRI"
    },
    {
        "area": "Hedali B.O",
        "pincode": "415709",
        "district": "RATNAGIRI"
    },
    {
        "area": "Hedavi S.O",
        "pincode": "415728",
        "district": "RATNAGIRI"
    },
    {
        "area": "Holi B.O",
        "pincode": "415805",
        "district": "RATNAGIRI"
    },
    {
        "area": "Humbri B.O",
        "pincode": "415730",
        "district": "RATNAGIRI"
    },
    {
        "area": "Ibrahimpattan B.O",
        "pincode": "416712",
        "district": "RATNAGIRI"
    },
    {
        "area": "Ilne B.O",
        "pincode": "415714",
        "district": "RATNAGIRI"
    },
    {
        "area": "Indavati B.O",
        "pincode": "416701",
        "district": "RATNAGIRI"
    },
    {
        "area": "Isavali B.O",
        "pincode": "416701",
        "district": "RATNAGIRI"
    },
    {
        "area": "Jaigad S.O",
        "pincode": "415614",
        "district": "RATNAGIRI"
    },
    {
        "area": "Jaitapur S.O",
        "pincode": "415805",
        "district": "RATNAGIRI"
    },
    {
        "area": "Jalgaon B.O",
        "pincode": "415712",
        "district": "RATNAGIRI"
    },
    {
        "area": "Jamage B.O",
        "pincode": "415709",
        "district": "RATNAGIRI"
    },
    {
        "area": "Jamage B.O",
        "pincode": "415716",
        "district": "RATNAGIRI"
    },
    {
        "area": "Jambhari B.O",
        "pincode": "415613",
        "district": "RATNAGIRI"
    },
    {
        "area": "Jamsud B.O",
        "pincode": "415703",
        "district": "RATNAGIRI"
    },
    {
        "area": "Javade B.O",
        "pincode": "416701",
        "district": "RATNAGIRI"
    },
    {
        "area": "Jawalethar B.O",
        "pincode": "416704",
        "district": "RATNAGIRI"
    },
    {
        "area": "Juwathi B.O",
        "pincode": "416702",
        "district": "RATNAGIRI"
    },
    {
        "area": "Kadavali B.O",
        "pincode": "415605",
        "district": "RATNAGIRI"
    },
    {
        "area": "Kadivali B.O",
        "pincode": "415712",
        "district": "RATNAGIRI"
    },
    {
        "area": "Kadwad B.O",
        "pincode": "415604",
        "district": "RATNAGIRI"
    },
    {
        "area": "Kadwai S.O",
        "pincode": "415609",
        "district": "RATNAGIRI"
    },
    {
        "area": "Kajirda B.O",
        "pincode": "416704",
        "district": "RATNAGIRI"
    },
    {
        "area": "Kajurli B.O",
        "pincode": "415726",
        "district": "RATNAGIRI"
    },
    {
        "area": "Kalamani Budruk B.O",
        "pincode": "415621",
        "district": "RATNAGIRI"
    },
    {
        "area": "Kalamani Khurd B.O",
        "pincode": "415730",
        "district": "RATNAGIRI"
    },
    {
        "area": "Kalambaste B.O",
        "pincode": "415605",
        "district": "RATNAGIRI"
    },
    {
        "area": "Kalambaste B.O",
        "pincode": "415610",
        "district": "RATNAGIRI"
    },
    {
        "area": "Kalambat B.O",
        "pincode": "415712",
        "district": "RATNAGIRI"
    },
    {
        "area": "Kalambat B.O",
        "pincode": "415641",
        "district": "RATNAGIRI"
    },
    {
        "area": "Kalambushi B.O",
        "pincode": "415608",
        "district": "RATNAGIRI"
    },
    {
        "area": "Kalamundi B.O",
        "pincode": "415702",
        "district": "RATNAGIRI"
    },
    {
        "area": "Kalbadevi B.O",
        "pincode": "415629",
        "district": "RATNAGIRI"
    },
    {
        "area": "Kalkavane B.O",
        "pincode": "415604",
        "district": "RATNAGIRI"
    },
    {
        "area": "Kalsavali B.O",
        "pincode": "416705",
        "district": "RATNAGIRI"
    },
    {
        "area": "Kalsur Koundhar B.O",
        "pincode": "415724",
        "district": "RATNAGIRI"
    },
    {
        "area": "Kaluste B.O",
        "pincode": "415605",
        "district": "RATNAGIRI"
    },
    {
        "area": "Kalvande B.O",
        "pincode": "415605",
        "district": "RATNAGIRI"
    },
    {
        "area": "Kalzondi B.O",
        "pincode": "415620",
        "district": "RATNAGIRI"
    },
    {
        "area": "Kamathe B.O",
        "pincode": "415605",
        "district": "RATNAGIRI"
    },
    {
        "area": "Kaneri B.O",
        "pincode": "416702",
        "district": "RATNAGIRI"
    },
    {
        "area": "Kangwai B.O",
        "pincode": "415712",
        "district": "RATNAGIRI"
    },
    {
        "area": "Kanhe B.O",
        "pincode": "415604",
        "district": "RATNAGIRI"
    },
    {
        "area": "Kankadi B.O",
        "pincode": "415803",
        "district": "RATNAGIRI"
    },
    {
        "area": "Kapad Gaon B.O",
        "pincode": "415619",
        "district": "RATNAGIRI"
    },
    {
        "area": "Kapre B.O",
        "pincode": "415628",
        "district": "RATNAGIRI"
    },
    {
        "area": "Kapsal B.O",
        "pincode": "415605",
        "district": "RATNAGIRI"
    },
    {
        "area": "Karak B.O",
        "pincode": "416704",
        "district": "RATNAGIRI"
    },
    {
        "area": "Karambavane B.O",
        "pincode": "415628",
        "district": "RATNAGIRI"
    },
    {
        "area": "Karambele Tarf Devale B.O",
        "pincode": "415804",
        "district": "RATNAGIRI"
    },
    {
        "area": "Karanjani B.O",
        "pincode": "415712",
        "district": "RATNAGIRI"
    },
    {
        "area": "Karanjgaon B.O",
        "pincode": "415720",
        "district": "RATNAGIRI"
    },
    {
        "area": "Karavali B.O",
        "pincode": "416704",
        "district": "RATNAGIRI"
    },
    {
        "area": "Karbhatale B.O",
        "pincode": "415610",
        "district": "RATNAGIRI"
    },
    {
        "area": "Karbude B.O",
        "pincode": "415639",
        "district": "RATNAGIRI"
    },
    {
        "area": "Karde B.O",
        "pincode": "415713",
        "district": "RATNAGIRI"
    },
    {
        "area": "Karji S.O",
        "pincode": "415727",
        "district": "RATNAGIRI"
    },
    {
        "area": "Karjikar Mohalla B.O",
        "pincode": "415628",
        "district": "RATNAGIRI"
    },
    {
        "area": "Karjuve B.O",
        "pincode": "415608",
        "district": "RATNAGIRI"
    },
    {
        "area": "Karla B.O",
        "pincode": "415612",
        "district": "RATNAGIRI"
    },
    {
        "area": "Karli B.O",
        "pincode": "415804",
        "district": "RATNAGIRI"
    },
    {
        "area": "Karul B.O",
        "pincode": "415719",
        "district": "RATNAGIRI"
    },
    {
        "area": "Kasai B.O",
        "pincode": "415718",
        "district": "RATNAGIRI"
    },
    {
        "area": "Kasar Kolwan B.O",
        "pincode": "415804",
        "district": "RATNAGIRI"
    },
    {
        "area": "Kasarveli B.O",
        "pincode": "415629",
        "district": "RATNAGIRI"
    },
    {
        "area": "Kasba S.O (Ratnagiri)",
        "pincode": "415610",
        "district": "RATNAGIRI"
    },
    {
        "area": "Kase B.O",
        "pincode": "415608",
        "district": "RATNAGIRI"
    },
    {
        "area": "Kashedi B.O",
        "pincode": "415640",
        "district": "RATNAGIRI"
    },
    {
        "area": "Kasheli B.O",
        "pincode": "416707",
        "district": "RATNAGIRI"
    },
    {
        "area": "Katali Sagave B.O",
        "pincode": "416709",
        "district": "RATNAGIRI"
    },
    {
        "area": "Katavali B.O",
        "pincode": "415804",
        "district": "RATNAGIRI"
    },
    {
        "area": "Katroli B.O",
        "pincode": "415701",
        "district": "RATNAGIRI"
    },
    {
        "area": "Kaundhar Tamhane B.O",
        "pincode": "415702",
        "district": "RATNAGIRI"
    },
    {
        "area": "Kelambe B.O",
        "pincode": "416701",
        "district": "RATNAGIRI"
    },
    {
        "area": "Kelavali B.O",
        "pincode": "416702",
        "district": "RATNAGIRI"
    },
    {
        "area": "Kelne B.O",
        "pincode": "415605",
        "district": "RATNAGIRI"
    },
    {
        "area": "Kelshi S.O",
        "pincode": "415717",
        "district": "RATNAGIRI"
    },
    {
        "area": "Kelye B.O",
        "pincode": "415612",
        "district": "RATNAGIRI"
    },
    {
        "area": "Kespuri B.O",
        "pincode": "415620",
        "district": "RATNAGIRI"
    },
    {
        "area": "Khadpoli B.O",
        "pincode": "415603",
        "district": "RATNAGIRI"
    },
    {
        "area": "Khalgaon S.O",
        "pincode": "415620",
        "district": "RATNAGIRI"
    },
    {
        "area": "Khanavali B.O",
        "pincode": "416712",
        "district": "RATNAGIRI"
    },
    {
        "area": "Khanu B.O",
        "pincode": "415803",
        "district": "RATNAGIRI"
    },
    {
        "area": "Kharvate B.O",
        "pincode": "415628",
        "district": "RATNAGIRI"
    },
    {
        "area": "Kharvate B.O",
        "pincode": "416705",
        "district": "RATNAGIRI"
    },
    {
        "area": "Khavadi B.O",
        "pincode": "416701",
        "district": "RATNAGIRI"
    },
    {
        "area": "Khavati S.O",
        "pincode": "415640",
        "district": "RATNAGIRI"
    },
    {
        "area": "Khed (RTG) S.O",
        "pincode": "415709",
        "district": "RATNAGIRI"
    },
    {
        "area": "Khed City S.O",
        "pincode": "415709",
        "district": "RATNAGIRI"
    },
    {
        "area": "Khed Sub Div.",
        "pincode": "415709",
        "district": "RATNAGIRI"
    },
    {
        "area": "Khedashi B.O",
        "pincode": "415639",
        "district": "RATNAGIRI"
    },
    {
        "area": "Kherdi B.O",
        "pincode": "415712",
        "district": "RATNAGIRI"
    },
    {
        "area": "Kherdi S.O",
        "pincode": "415604",
        "district": "RATNAGIRI"
    },
    {
        "area": "Khodade B.O",
        "pincode": "415726",
        "district": "RATNAGIRI"
    },
    {
        "area": "Khopad B.O",
        "pincode": "415628",
        "district": "RATNAGIRI"
    },
    {
        "area": "Khopi S.O",
        "pincode": "415715",
        "district": "RATNAGIRI"
    },
    {
        "area": "Khorninko B.O",
        "pincode": "416701",
        "district": "RATNAGIRI"
    },
    {
        "area": "Kirbet B.O",
        "pincode": "415801",
        "district": "RATNAGIRI"
    },
    {
        "area": "Kirduve B.O",
        "pincode": "415804",
        "district": "RATNAGIRI"
    },
    {
        "area": "Kochari B.O",
        "pincode": "415802",
        "district": "RATNAGIRI"
    },
    {
        "area": "Kodavali B.O",
        "pincode": "416702",
        "district": "RATNAGIRI"
    },
    {
        "area": "Kokare B.O",
        "pincode": "415608",
        "district": "RATNAGIRI"
    },
    {
        "area": "Kolamb B.O",
        "pincode": "416704",
        "district": "RATNAGIRI"
    },
    {
        "area": "Kolambe B.O",
        "pincode": "415612",
        "district": "RATNAGIRI"
    },
    {
        "area": "Kolambe(S) B.O",
        "pincode": "415637",
        "district": "RATNAGIRI"
    },
    {
        "area": "Kolawali B.O",
        "pincode": "415726",
        "district": "RATNAGIRI"
    },
    {
        "area": "Kolbandre B.O",
        "pincode": "415711",
        "district": "RATNAGIRI"
    },
    {
        "area": "Koldhe B.O",
        "pincode": "416712",
        "district": "RATNAGIRI"
    },
    {
        "area": "Kolisare B.O",
        "pincode": "415620",
        "district": "RATNAGIRI"
    },
    {
        "area": "Kolke Wadi B.O",
        "pincode": "415603",
        "district": "RATNAGIRI"
    },
    {
        "area": "Kolthare B.O",
        "pincode": "415712",
        "district": "RATNAGIRI"
    },
    {
        "area": "Kolwan Chuna B.O",
        "pincode": "416705",
        "district": "RATNAGIRI"
    },
    {
        "area": "Kolwan Khadi B.O",
        "pincode": "416704",
        "district": "RATNAGIRI"
    },
    {
        "area": "Kondge B.O",
        "pincode": "415643",
        "district": "RATNAGIRI"
    },
    {
        "area": "Kondivali B.O",
        "pincode": "415709",
        "district": "RATNAGIRI"
    },
    {
        "area": "Kondivare B.O",
        "pincode": "415608",
        "district": "RATNAGIRI"
    },
    {
        "area": "Kondmala B.O",
        "pincode": "415606",
        "district": "RATNAGIRI"
    },
    {
        "area": "Kondsur Budruk B.O",
        "pincode": "416707",
        "district": "RATNAGIRI"
    },
    {
        "area": "Kondye B.O",
        "pincode": "415620",
        "district": "RATNAGIRI"
    },
    {
        "area": "Kondye B.O",
        "pincode": "416701",
        "district": "RATNAGIRI"
    },
    {
        "area": "Kondye B.O",
        "pincode": "416702",
        "district": "RATNAGIRI"
    },
    {
        "area": "Koregaon B.O",
        "pincode": "415709",
        "district": "RATNAGIRI"
    },
    {
        "area": "Korle B.O",
        "pincode": "416701",
        "district": "RATNAGIRI"
    },
    {
        "area": "Kosbi B.O",
        "pincode": "415606",
        "district": "RATNAGIRI"
    },
    {
        "area": "Kosumb B.O",
        "pincode": "415804",
        "district": "RATNAGIRI"
    },
    {
        "area": "Kot B.O",
        "pincode": "416712",
        "district": "RATNAGIRI"
    },
    {
        "area": "Kotapur B.O",
        "pincode": "416702",
        "district": "RATNAGIRI"
    },
    {
        "area": "Kotavali B.O",
        "pincode": "415722",
        "district": "RATNAGIRI"
    },
    {
        "area": "Kotawada S.O",
        "pincode": "415617",
        "district": "RATNAGIRI"
    },
    {
        "area": "Kotluk B.O",
        "pincode": "415703",
        "district": "RATNAGIRI"
    },
    {
        "area": "Kudali B.O",
        "pincode": "415613",
        "district": "RATNAGIRI"
    },
    {
        "area": "Kudavale B.O",
        "pincode": "415712",
        "district": "RATNAGIRI"
    },
    {
        "area": "Kulvandi B.O",
        "pincode": "415715",
        "district": "RATNAGIRI"
    },
    {
        "area": "Kumbale B.O",
        "pincode": "415203",
        "district": "RATNAGIRI"
    },
    {
        "area": "Kumbhad B.O",
        "pincode": "415715",
        "district": "RATNAGIRI"
    },
    {
        "area": "Kumbharkhani B.O",
        "pincode": "415607",
        "district": "RATNAGIRI"
    },
    {
        "area": "Kumbharli B.O",
        "pincode": "415602",
        "district": "RATNAGIRI"
    },
    {
        "area": "Kumbhavade B.O",
        "pincode": "416702",
        "district": "RATNAGIRI"
    },
    {
        "area": "Kundi B.O",
        "pincode": "415804",
        "district": "RATNAGIRI"
    },
    {
        "area": "Kurang B.O",
        "pincode": "415643",
        "district": "RATNAGIRI"
    },
    {
        "area": "Kurdhunda B.O",
        "pincode": "415611",
        "district": "RATNAGIRI"
    },
    {
        "area": "Kurne B.O",
        "pincode": "416712",
        "district": "RATNAGIRI"
    },
    {
        "area": "Kurtade B.O",
        "pincode": "416712",
        "district": "RATNAGIRI"
    },
    {
        "area": "Kurwal Jawali B.O",
        "pincode": "415718",
        "district": "RATNAGIRI"
    },
    {
        "area": "Kutgiri B.O",
        "pincode": "415702",
        "district": "RATNAGIRI"
    },
    {
        "area": "Kutra B.O",
        "pincode": "415607",
        "district": "RATNAGIRI"
    },
    {
        "area": "Kuvarbav S.O",
        "pincode": "415639",
        "district": "RATNAGIRI"
    },
    {
        "area": "Kuve B.O",
        "pincode": "416701",
        "district": "RATNAGIRI"
    },
    {
        "area": "Kuveshi B.O",
        "pincode": "415805",
        "district": "RATNAGIRI"
    },
    {
        "area": "Ladghar B.O",
        "pincode": "415712",
        "district": "RATNAGIRI"
    },
    {
        "area": "Lanja S.O",
        "pincode": "416701",
        "district": "RATNAGIRI"
    },
    {
        "area": "Lanja Sub Division",
        "pincode": "416701",
        "district": "RATNAGIRI"
    },
    {
        "area": "Latwan S.O",
        "pincode": "415202",
        "district": "RATNAGIRI"
    },
    {
        "area": "Lavel S.O",
        "pincode": "415708",
        "district": "RATNAGIRI"
    },
    {
        "area": "Lavgan B.O",
        "pincode": "416712",
        "district": "RATNAGIRI"
    },
    {
        "area": "Lote S.O (Ratnagiri)",
        "pincode": "415722",
        "district": "RATNAGIRI"
    },
    {
        "area": "Lowale B.O",
        "pincode": "415611",
        "district": "RATNAGIRI"
    },
    {
        "area": "Mabhale B.O",
        "pincode": "415611",
        "district": "RATNAGIRI"
    },
    {
        "area": "Madban B.O",
        "pincode": "415805",
        "district": "RATNAGIRI"
    },
    {
        "area": "Mahalunge B.O",
        "pincode": "415730",
        "district": "RATNAGIRI"
    },
    {
        "area": "Majal B.O",
        "pincode": "416701",
        "district": "RATNAGIRI"
    },
    {
        "area": "Majgaon",
        "pincode": "415612",
        "district": "RATNAGIRI"
    },
    {
        "area": "Makhajan S.O",
        "pincode": "415608",
        "district": "RATNAGIRI"
    },
    {
        "area": "Malan B.O",
        "pincode": "415724",
        "district": "RATNAGIRI"
    },
    {
        "area": "Maldoli B.O",
        "pincode": "415628",
        "district": "RATNAGIRI"
    },
    {
        "area": "Malghar B.O",
        "pincode": "415701",
        "district": "RATNAGIRI"
    },
    {
        "area": "Malgund S.O",
        "pincode": "415615",
        "district": "RATNAGIRI"
    },
    {
        "area": "Mandangad S.O",
        "pincode": "415203",
        "district": "RATNAGIRI"
    },
    {
        "area": "Mandivali B.O",
        "pincode": "415203",
        "district": "RATNAGIRI"
    },
    {
        "area": "Mandki B.O",
        "pincode": "415606",
        "district": "RATNAGIRI"
    },
    {
        "area": "Mandva B.O",
        "pincode": "415621",
        "district": "RATNAGIRI"
    },
    {
        "area": "Mani B.O",
        "pincode": "415709",
        "district": "RATNAGIRI"
    },
    {
        "area": "Manjare B.O",
        "pincode": "415620",
        "district": "RATNAGIRI"
    },
    {
        "area": "Maral B.O",
        "pincode": "415804",
        "district": "RATNAGIRI"
    },
    {
        "area": "Margatamhane S.O",
        "pincode": "415702",
        "district": "RATNAGIRI"
    },
    {
        "area": "Markandi S.O",
        "pincode": "415605",
        "district": "RATNAGIRI"
    },
    {
        "area": "Masrang B.O",
        "pincode": "415609",
        "district": "RATNAGIRI"
    },
    {
        "area": "Masu B.O",
        "pincode": "415726",
        "district": "RATNAGIRI"
    },
    {
        "area": "Math B.O",
        "pincode": "415803",
        "district": "RATNAGIRI"
    },
    {
        "area": "Matwan B.O",
        "pincode": "415712",
        "district": "RATNAGIRI"
    },
    {
        "area": "Mavlange B.O",
        "pincode": "415616",
        "district": "RATNAGIRI"
    },
    {
        "area": "Meghi B.O",
        "pincode": "415807",
        "district": "RATNAGIRI"
    },
    {
        "area": "Mervi B.O",
        "pincode": "415616",
        "district": "RATNAGIRI"
    },
    {
        "area": "Mhapral B.O",
        "pincode": "415203",
        "district": "RATNAGIRI"
    },
    {
        "area": "MIDC (RTG) S.O",
        "pincode": "415639",
        "district": "RATNAGIRI"
    },
    {
        "area": "Miland B.O",
        "pincode": "416704",
        "district": "RATNAGIRI"
    },
    {
        "area": "Miravane B.O",
        "pincode": "415701",
        "district": "RATNAGIRI"
    },
    {
        "area": "Mirjole B.O",
        "pincode": "415639",
        "district": "RATNAGIRI"
    },
    {
        "area": "Mirya B.O",
        "pincode": "415612",
        "district": "RATNAGIRI"
    },
    {
        "area": "Mithgavane B.O",
        "pincode": "415805",
        "district": "RATNAGIRI"
    },
    {
        "area": "Mohane B.O",
        "pincode": "415730",
        "district": "RATNAGIRI"
    },
    {
        "area": "Moor B.O",
        "pincode": "416704",
        "district": "RATNAGIRI"
    },
    {
        "area": "Moravane B.O",
        "pincode": "415604",
        "district": "RATNAGIRI"
    },
    {
        "area": "Morde B.O",
        "pincode": "415804",
        "district": "RATNAGIRI"
    },
    {
        "area": "Moroshi B.O",
        "pincode": "416702",
        "district": "RATNAGIRI"
    },
    {
        "area": "Morvande B.O",
        "pincode": "415709",
        "district": "RATNAGIRI"
    },
    {
        "area": "Mosam B.O",
        "pincode": "416702",
        "district": "RATNAGIRI"
    },
    {
        "area": "Muchari B.O",
        "pincode": "415611",
        "district": "RATNAGIRI"
    },
    {
        "area": "Mudhe Tarf Sawarda B.O",
        "pincode": "415606",
        "district": "RATNAGIRI"
    },
    {
        "area": "Mugij B.O",
        "pincode": "415716",
        "district": "RATNAGIRI"
    },
    {
        "area": "Mumbake B.O",
        "pincode": "415727",
        "district": "RATNAGIRI"
    },
    {
        "area": "Mundhar B.O",
        "pincode": "415719",
        "district": "RATNAGIRI"
    },
    {
        "area": "Mundhe B.O",
        "pincode": "415602",
        "district": "RATNAGIRI"
    },
    {
        "area": "Murdav B.O",
        "pincode": "415608",
        "district": "RATNAGIRI"
    },
    {
        "area": "Murde B.O",
        "pincode": "415709",
        "district": "RATNAGIRI"
    },
    {
        "area": "Murshi B.O",
        "pincode": "415801",
        "district": "RATNAGIRI"
    },
    {
        "area": "Murtavade B.O",
        "pincode": "415641",
        "district": "RATNAGIRI"
    },
    {
        "area": "Murud B.O",
        "pincode": "415713",
        "district": "RATNAGIRI"
    },
    {
        "area": "Musad B.O",
        "pincode": "415605",
        "district": "RATNAGIRI"
    },
    {
        "area": "Nachane B.O",
        "pincode": "415639",
        "district": "RATNAGIRI"
    },
    {
        "area": "Nakhare B.O",
        "pincode": "415616",
        "district": "RATNAGIRI"
    },
    {
        "area": "Nanar B.O",
        "pincode": "416702",
        "district": "RATNAGIRI"
    },
    {
        "area": "Nandgaon (CPN) S.O",
        "pincode": "415607",
        "district": "RATNAGIRI"
    },
    {
        "area": "Nandgaon (Khed) B.O",
        "pincode": "415709",
        "district": "RATNAGIRI"
    },
    {
        "area": "Nandivase B.O",
        "pincode": "415604",
        "district": "RATNAGIRI"
    },
    {
        "area": "Nandivili B.O",
        "pincode": "415730",
        "district": "RATNAGIRI"
    },
    {
        "area": "Nanij B.O",
        "pincode": "415803",
        "district": "RATNAGIRI"
    },
    {
        "area": "Nante B.O",
        "pincode": "415712",
        "district": "RATNAGIRI"
    },
    {
        "area": "Narduve B.O",
        "pincode": "415608",
        "district": "RATNAGIRI"
    },
    {
        "area": "Narvan B.O",
        "pincode": "415728",
        "district": "RATNAGIRI"
    },
    {
        "area": "Nata S.O",
        "pincode": "415806",
        "district": "RATNAGIRI"
    },
    {
        "area": "Natunagar B.O",
        "pincode": "415640",
        "district": "RATNAGIRI"
    },
    {
        "area": "Nayari B.O",
        "pincode": "415610",
        "district": "RATNAGIRI"
    },
    {
        "area": "Nayashi B.O",
        "pincode": "415608",
        "district": "RATNAGIRI"
    },
    {
        "area": "Nevare B.O",
        "pincode": "415620",
        "district": "RATNAGIRI"
    },
    {
        "area": "Nigadi B.O",
        "pincode": "415208",
        "district": "RATNAGIRI"
    },
    {
        "area": "Nigundal B.O",
        "pincode": "415719",
        "district": "RATNAGIRI"
    },
    {
        "area": "Nilavane B.O",
        "pincode": "415621",
        "district": "RATNAGIRI"
    },
    {
        "area": "Nirul B.O",
        "pincode": "415616",
        "district": "RATNAGIRI"
    },
    {
        "area": "Nirvhal B.O",
        "pincode": "415701",
        "district": "RATNAGIRI"
    },
    {
        "area": "Nive Budruk B.O",
        "pincode": "415804",
        "district": "RATNAGIRI"
    },
    {
        "area": "Niveli B.O",
        "pincode": "416702",
        "district": "RATNAGIRI"
    },
    {
        "area": "Nivendi B.O",
        "pincode": "415615",
        "district": "RATNAGIRI"
    },
    {
        "area": "Nivsar B.O",
        "pincode": "415803",
        "district": "RATNAGIRI"
    },
    {
        "area": "Niwali (CPN) S.O",
        "pincode": "415641",
        "district": "RATNAGIRI"
    },
    {
        "area": "Niwali B.O",
        "pincode": "415639",
        "district": "RATNAGIRI"
    },
    {
        "area": "Omali B.O",
        "pincode": "415628",
        "district": "RATNAGIRI"
    },
    {
        "area": "Oni navase B.O",
        "pincode": "415706",
        "district": "RATNAGIRI"
    },
    {
        "area": "Oni S.O",
        "pincode": "416705",
        "district": "RATNAGIRI"
    },
    {
        "area": "Ori B.O",
        "pincode": "415620",
        "district": "RATNAGIRI"
    },
    {
        "area": "Oshivale B.O",
        "pincode": "416704",
        "district": "RATNAGIRI"
    },
    {
        "area": "Ovali B.O",
        "pincode": "415604",
        "district": "RATNAGIRI"
    },
    {
        "area": "Ozare B.O",
        "pincode": "416705",
        "district": "RATNAGIRI"
    },
    {
        "area": "Ozare Budruk B.O",
        "pincode": "415801",
        "district": "RATNAGIRI"
    },
    {
        "area": "Ozare Khurd B.O",
        "pincode": "415804",
        "district": "RATNAGIRI"
    },
    {
        "area": "Pachal S.O (Ratnagiri)",
        "pincode": "416704",
        "district": "RATNAGIRI"
    },
    {
        "area": "Pachambe B.O",
        "pincode": "415607",
        "district": "RATNAGIRI"
    },
    {
        "area": "Pachavali B.O",
        "pincode": "415712",
        "district": "RATNAGIRI"
    },
    {
        "area": "Pacheri Sada B.O",
        "pincode": "415726",
        "district": "RATNAGIRI"
    },
    {
        "area": "Padave B.O",
        "pincode": "416702",
        "district": "RATNAGIRI"
    },
    {
        "area": "Padve B.O",
        "pincode": "415214",
        "district": "RATNAGIRI"
    },
    {
        "area": "Padve B.O",
        "pincode": "415613",
        "district": "RATNAGIRI"
    },
    {
        "area": "Paj B.O",
        "pincode": "415713",
        "district": "RATNAGIRI"
    },
    {
        "area": "Palavani B.O",
        "pincode": "415712",
        "district": "RATNAGIRI"
    },
    {
        "area": "Palgad S.O",
        "pincode": "415716",
        "district": "RATNAGIRI"
    },
    {
        "area": "Pali (RTG) S.O",
        "pincode": "415803",
        "district": "RATNAGIRI"
    },
    {
        "area": "Pali(CPN) B.O",
        "pincode": "415605",
        "district": "RATNAGIRI"
    },
    {
        "area": "Palpene B.O",
        "pincode": "415724",
        "district": "RATNAGIRI"
    },
    {
        "area": "Palshet B.O",
        "pincode": "415703",
        "district": "RATNAGIRI"
    },
    {
        "area": "Palu B.O",
        "pincode": "416701",
        "district": "RATNAGIRI"
    },
    {
        "area": "Palvan B.O",
        "pincode": "415641",
        "district": "RATNAGIRI"
    },
    {
        "area": "Panchnadi B.O",
        "pincode": "415712",
        "district": "RATNAGIRI"
    },
    {
        "area": "Panderi S.O",
        "pincode": "415214",
        "district": "RATNAGIRI"
    },
    {
        "area": "Pangare B.O",
        "pincode": "416702",
        "district": "RATNAGIRI"
    },
    {
        "area": "Pangari B.O",
        "pincode": "415719",
        "district": "RATNAGIRI"
    },
    {
        "area": "Pangari B.O",
        "pincode": "415639",
        "district": "RATNAGIRI"
    },
    {
        "area": "Pangari Tarf Haveli B.O",
        "pincode": "415711",
        "district": "RATNAGIRI"
    },
    {
        "area": "Pangari Tarf Velamb B.O",
        "pincode": "415724",
        "district": "RATNAGIRI"
    },
    {
        "area": "Panhale B.O",
        "pincode": "415643",
        "district": "RATNAGIRI"
    },
    {
        "area": "Panhale Kazi B.O",
        "pincode": "415711",
        "district": "RATNAGIRI"
    },
    {
        "area": "Panhale Tarf Saundal B.O",
        "pincode": "416702",
        "district": "RATNAGIRI"
    },
    {
        "area": "Panhalje B.O",
        "pincode": "415727",
        "district": "RATNAGIRI"
    },
    {
        "area": "Panval B.O",
        "pincode": "415619",
        "district": "RATNAGIRI"
    },
    {
        "area": "Parchuri B.O",
        "pincode": "415719",
        "district": "RATNAGIRI"
    },
    {
        "area": "Parchuri B.O",
        "pincode": "415637",
        "district": "RATNAGIRI"
    },
    {
        "area": "Parshuram B.O",
        "pincode": "415605",
        "district": "RATNAGIRI"
    },
    {
        "area": "Parule B.O",
        "pincode": "416704",
        "district": "RATNAGIRI"
    },
    {
        "area": "Pate Pillavali B.O",
        "pincode": "415641",
        "district": "RATNAGIRI"
    },
    {
        "area": "Patgaon B.O",
        "pincode": "415804",
        "district": "RATNAGIRI"
    },
    {
        "area": "Patpanhale B.O",
        "pincode": "415724",
        "district": "RATNAGIRI"
    },
    {
        "area": "Pawas S.O",
        "pincode": "415616",
        "district": "RATNAGIRI"
    },
    {
        "area": "Pedhambe B.O",
        "pincode": "415603",
        "district": "RATNAGIRI"
    },
    {
        "area": "Pedhe B.O",
        "pincode": "415605",
        "district": "RATNAGIRI"
    },
    {
        "area": "Pendkhale B.O",
        "pincode": "416713",
        "district": "RATNAGIRI"
    },
    {
        "area": "Peve B.O",
        "pincode": "415214",
        "district": "RATNAGIRI"
    },
    {
        "area": "Peve B.O",
        "pincode": "415719",
        "district": "RATNAGIRI"
    },
    {
        "area": "Phansavale B.O",
        "pincode": "415612",
        "district": "RATNAGIRI"
    },
    {
        "area": "Phansavane B.O",
        "pincode": "415610",
        "district": "RATNAGIRI"
    },
    {
        "area": "Phansop B.O",
        "pincode": "415612",
        "district": "RATNAGIRI"
    },
    {
        "area": "Phansu B.O",
        "pincode": "415711",
        "district": "RATNAGIRI"
    },
    {
        "area": "Pilavali B.O",
        "pincode": "415641",
        "district": "RATNAGIRI"
    },
    {
        "area": "Pimpar B.O",
        "pincode": "415703",
        "district": "RATNAGIRI"
    },
    {
        "area": "Pimpli Khurd B.O",
        "pincode": "415604",
        "district": "RATNAGIRI"
    },
    {
        "area": "Pimploli B.O",
        "pincode": "415202",
        "district": "RATNAGIRI"
    },
    {
        "area": "Pirandavane B.O",
        "pincode": "415617",
        "district": "RATNAGIRI"
    },
    {
        "area": "Pirandavane B.O",
        "pincode": "415611",
        "district": "RATNAGIRI"
    },
    {
        "area": "Pisai B.O",
        "pincode": "415712",
        "district": "RATNAGIRI"
    },
    {
        "area": "Pochari B.O",
        "pincode": "415620",
        "district": "RATNAGIRI"
    },
    {
        "area": "Pomendi B.O",
        "pincode": "415724",
        "district": "RATNAGIRI"
    },
    {
        "area": "Pomendi Budruk B.O",
        "pincode": "415612",
        "district": "RATNAGIRI"
    },
    {
        "area": "Pomendi Khurd B.O",
        "pincode": "415612",
        "district": "RATNAGIRI"
    },
    {
        "area": "Pophali S.O",
        "pincode": "415601",
        "district": "RATNAGIRI"
    },
    {
        "area": "Pophlavane B.O",
        "pincode": "415727",
        "district": "RATNAGIRI"
    },
    {
        "area": "Posare B.O",
        "pincode": "415628",
        "district": "RATNAGIRI"
    },
    {
        "area": "Posare Budruk B.O",
        "pincode": "415718",
        "district": "RATNAGIRI"
    },
    {
        "area": "Poynar B.O",
        "pincode": "415710",
        "district": "RATNAGIRI"
    },
    {
        "area": "Prabhanvalli B.O",
        "pincode": "416701",
        "district": "RATNAGIRI"
    },
    {
        "area": "Prindavan B.O",
        "pincode": "416702",
        "district": "RATNAGIRI"
    },
    {
        "area": "Punas B.O",
        "pincode": "416712",
        "district": "RATNAGIRI"
    },
    {
        "area": "Purnagad B.O",
        "pincode": "415616",
        "district": "RATNAGIRI"
    },
    {
        "area": "Purye Tarfe Devale",
        "pincode": "415801",
        "district": "RATNAGIRI"
    },
    {
        "area": "Rai B.O",
        "pincode": "415620",
        "district": "RATNAGIRI"
    },
    {
        "area": "Rajapur S.O (Ratnagiri)",
        "pincode": "416702",
        "district": "RATNAGIRI"
    },
    {
        "area": "Rajapur Sub Div.",
        "pincode": "416702",
        "district": "RATNAGIRI"
    },
    {
        "area": "Rajivili B.O",
        "pincode": "415607",
        "district": "RATNAGIRI"
    },
    {
        "area": "Rajwadi B.O",
        "pincode": "416707",
        "district": "RATNAGIRI"
    },
    {
        "area": "Rajwadi B.O",
        "pincode": "415611",
        "district": "RATNAGIRI"
    },
    {
        "area": "Rampur S.O (Ratnagiri)",
        "pincode": "415701",
        "district": "RATNAGIRI"
    },
    {
        "area": "Ranpat B.O",
        "pincode": "415620",
        "district": "RATNAGIRI"
    },
    {
        "area": "Ratnagiri Collectorate S.O",
        "pincode": "415612",
        "district": "RATNAGIRI"
    },
    {
        "area": "RATNAGIRI DIVISION",
        "pincode": "415726",
        "district": "RATNAGIRI"
    },
    {
        "area": "Ratnagiri H.O",
        "pincode": "415612",
        "district": "RATNAGIRI"
    },
    {
        "area": "Ratnagiri ICH",
        "pincode": "415612",
        "district": "RATNAGIRI"
    },
    {
        "area": "Ratnagiri PH",
        "pincode": "415612",
        "district": "RATNAGIRI"
    },
    {
        "area": "RATNAGIRI SORTING",
        "pincode": "415612",
        "district": "RATNAGIRI"
    },
    {
        "area": "Ratnagiri Sorting L2R",
        "pincode": "415612",
        "district": "RATNAGIRI"
    },
    {
        "area": "Ratnagiri Sorting L2S",
        "pincode": "415615",
        "district": "RATNAGIRI"
    },
    {
        "area": "Ratnagiri Sorting L2U",
        "pincode": "415612",
        "district": "RATNAGIRI"
    },
    {
        "area": "Ratnagiri Sub Division",
        "pincode": "415612",
        "district": "RATNAGIRI"
    },
    {
        "area": "Raypatan B.O",
        "pincode": "416704",
        "district": "RATNAGIRI"
    },
    {
        "area": "RGPPL Anjanvel S.O",
        "pincode": "415634",
        "district": "RATNAGIRI"
    },
    {
        "area": "Ringane B.O",
        "pincode": "415643",
        "district": "RATNAGIRI"
    },
    {
        "area": "Roon B.O",
        "pincode": "416701",
        "district": "RATNAGIRI"
    },
    {
        "area": "Sada Jambhari B.O",
        "pincode": "415726",
        "district": "RATNAGIRI"
    },
    {
        "area": "Sadavali B.O",
        "pincode": "415804",
        "district": "RATNAGIRI"
    },
    {
        "area": "Sagave S.O",
        "pincode": "416709",
        "district": "RATNAGIRI"
    },
    {
        "area": "Saitavada S.O",
        "pincode": "415613",
        "district": "RATNAGIRI"
    },
    {
        "area": "Sakhar B.O",
        "pincode": "415718",
        "district": "RATNAGIRI"
    },
    {
        "area": "Sakhar B.O",
        "pincode": "416702",
        "district": "RATNAGIRI"
    },
    {
        "area": "Sakhari Agar B.O",
        "pincode": "415729",
        "district": "RATNAGIRI"
    },
    {
        "area": "Sakhari Budruk B.O",
        "pincode": "415724",
        "district": "RATNAGIRI"
    },
    {
        "area": "Sakhari Trishul B.O",
        "pincode": "415724",
        "district": "RATNAGIRI"
    },
    {
        "area": "Sakharpa S.O",
        "pincode": "415801",
        "district": "RATNAGIRI"
    },
    {
        "area": "Sakhloli B.O",
        "pincode": "415712",
        "district": "RATNAGIRI"
    },
    {
        "area": "Sakhroli B.O",
        "pincode": "415710",
        "district": "RATNAGIRI"
    },
    {
        "area": "Salpe B.O",
        "pincode": "415802",
        "district": "RATNAGIRI"
    },
    {
        "area": "Sangave B.O",
        "pincode": "415804",
        "district": "RATNAGIRI"
    },
    {
        "area": "Sanglat B.O",
        "pincode": "415709",
        "district": "RATNAGIRI"
    },
    {
        "area": "Sangmeshwar S.O",
        "pincode": "415611",
        "district": "RATNAGIRI"
    },
    {
        "area": "Sapirili B.O",
        "pincode": "415718",
        "district": "RATNAGIRI"
    },
    {
        "area": "Sarang B.O",
        "pincode": "415712",
        "district": "RATNAGIRI"
    },
    {
        "area": "Sasale B.O",
        "pincode": "416702",
        "district": "RATNAGIRI"
    },
    {
        "area": "Satavali B.O",
        "pincode": "416701",
        "district": "RATNAGIRI"
    },
    {
        "area": "Satere Tarf Natu B.O",
        "pincode": "415716",
        "district": "RATNAGIRI"
    },
    {
        "area": "Sathare Bambar B.O",
        "pincode": "415803",
        "district": "RATNAGIRI"
    },
    {
        "area": "Satvingaon B.O",
        "pincode": "415708",
        "district": "RATNAGIRI"
    },
    {
        "area": "Saundal B.O",
        "pincode": "416704",
        "district": "RATNAGIRI"
    },
    {
        "area": "Savdav B.O",
        "pincode": "416704",
        "district": "RATNAGIRI"
    },
    {
        "area": "Saveni B.O",
        "pincode": "415709",
        "district": "RATNAGIRI"
    },
    {
        "area": "Savnas B.O",
        "pincode": "415727",
        "district": "RATNAGIRI"
    },
    {
        "area": "Sawarda S.O",
        "pincode": "415606",
        "district": "RATNAGIRI"
    },
    {
        "area": "Sayale B.O",
        "pincode": "415804",
        "district": "RATNAGIRI"
    },
    {
        "area": "Sheldi B.O",
        "pincode": "415722",
        "district": "RATNAGIRI"
    },
    {
        "area": "Shembavane B.O",
        "pincode": "415611",
        "district": "RATNAGIRI"
    },
    {
        "area": "Shindi B.O",
        "pincode": "415715",
        "district": "RATNAGIRI"
    },
    {
        "area": "Shingri B.O",
        "pincode": "415621",
        "district": "RATNAGIRI"
    },
    {
        "area": "Shipole B.O",
        "pincode": "415208",
        "district": "RATNAGIRI"
    },
    {
        "area": "Shiposhi S.O",
        "pincode": "415802",
        "district": "RATNAGIRI"
    },
    {
        "area": "Shir B.O",
        "pincode": "415724",
        "district": "RATNAGIRI"
    },
    {
        "area": "Shiral S.O",
        "pincode": "415628",
        "district": "RATNAGIRI"
    },
    {
        "area": "Shirambavali B.O",
        "pincode": "415803",
        "district": "RATNAGIRI"
    },
    {
        "area": "Shirambe B.O",
        "pincode": "415641",
        "district": "RATNAGIRI"
    },
    {
        "area": "Shiravali B.O",
        "pincode": "415643",
        "district": "RATNAGIRI"
    },
    {
        "area": "Shirgaon (CPN) S.O",
        "pincode": "415602",
        "district": "RATNAGIRI"
    },
    {
        "area": "Shirgaon (RTG) S.O",
        "pincode": "415629",
        "district": "RATNAGIRI"
    },
    {
        "area": "Shirgaon B.O",
        "pincode": "415715",
        "district": "RATNAGIRI"
    },
    {
        "area": "Shirkhal B.O",
        "pincode": "415716",
        "district": "RATNAGIRI"
    },
    {
        "area": "Shirshi B.O",
        "pincode": "415727",
        "district": "RATNAGIRI"
    },
    {
        "area": "Shirsoli B.O",
        "pincode": "415712",
        "district": "RATNAGIRI"
    },
    {
        "area": "Shiv Budruk B.O",
        "pincode": "415709",
        "district": "RATNAGIRI"
    },
    {
        "area": "Shivaji Nagar (RTG) S.O",
        "pincode": "415612",
        "district": "RATNAGIRI"
    },
    {
        "area": "Shivane Budruk B.O",
        "pincode": "416713",
        "district": "RATNAGIRI"
    },
    {
        "area": "Shivane Khurd B.O",
        "pincode": "416702",
        "district": "RATNAGIRI"
    },
    {
        "area": "Shivar Ambere B.O",
        "pincode": "415626",
        "district": "RATNAGIRI"
    },
    {
        "area": "Shivtar B.O",
        "pincode": "415709",
        "district": "RATNAGIRI"
    },
    {
        "area": "Shringarpur B.O",
        "pincode": "415610",
        "district": "RATNAGIRI"
    },
    {
        "area": "Shringartali S.O",
        "pincode": "415724",
        "district": "RATNAGIRI"
    },
    {
        "area": "Solgaon B.O",
        "pincode": "416702",
        "district": "RATNAGIRI"
    },
    {
        "area": "Soliwade B.O",
        "pincode": "416704",
        "district": "RATNAGIRI"
    },
    {
        "area": "Someshwar B.O",
        "pincode": "415612",
        "district": "RATNAGIRI"
    },
    {
        "area": "Sonavade B.O",
        "pincode": "415611",
        "district": "RATNAGIRI"
    },
    {
        "area": "Sondeghar B.O",
        "pincode": "415716",
        "district": "RATNAGIRI"
    },
    {
        "area": "Songaon B.O",
        "pincode": "415722",
        "district": "RATNAGIRI"
    },
    {
        "area": "Soveli B.O",
        "pincode": "415203",
        "district": "RATNAGIRI"
    },
    {
        "area": "SRO RMS BM DN RATNAGIRI",
        "pincode": "415612",
        "district": "RATNAGIRI"
    },
    {
        "area": "Sukivili B.O",
        "pincode": "415621",
        "district": "RATNAGIRI"
    },
    {
        "area": "Sukondi B.O",
        "pincode": "415714",
        "district": "RATNAGIRI"
    },
    {
        "area": "Susheri B.O",
        "pincode": "415709",
        "district": "RATNAGIRI"
    },
    {
        "area": "Tadil B.O",
        "pincode": "415712",
        "district": "RATNAGIRI"
    },
    {
        "area": "Takede B.O",
        "pincode": "415203",
        "district": "RATNAGIRI"
    },
    {
        "area": "Tala Mandva B.O",
        "pincode": "415621",
        "district": "RATNAGIRI"
    },
    {
        "area": "Talavade B.O",
        "pincode": "415607",
        "district": "RATNAGIRI"
    },
    {
        "area": "Talavade B.O",
        "pincode": "416712",
        "district": "RATNAGIRI"
    },
    {
        "area": "Talavade B.O",
        "pincode": "416704",
        "district": "RATNAGIRI"
    },
    {
        "area": "Talavali S.O",
        "pincode": "415719",
        "district": "RATNAGIRI"
    },
    {
        "area": "Talekante B.O",
        "pincode": "415637",
        "district": "RATNAGIRI"
    },
    {
        "area": "Talgaon B.O",
        "pincode": "416702",
        "district": "RATNAGIRI"
    },
    {
        "area": "Talsar B.O",
        "pincode": "415602",
        "district": "RATNAGIRI"
    },
    {
        "area": "Talsure B.O",
        "pincode": "415712",
        "district": "RATNAGIRI"
    },
    {
        "area": "Talvat B.O",
        "pincode": "415718",
        "district": "RATNAGIRI"
    },
    {
        "area": "Tambedi B.O",
        "pincode": "415610",
        "district": "RATNAGIRI"
    },
    {
        "area": "Tamhane B.O",
        "pincode": "415804",
        "district": "RATNAGIRI"
    },
    {
        "area": "Tamhane B.O",
        "pincode": "416704",
        "district": "RATNAGIRI"
    },
    {
        "area": "Tamhanmala B.O",
        "pincode": "415628",
        "district": "RATNAGIRI"
    },
    {
        "area": "Tanali B.O",
        "pincode": "415702",
        "district": "RATNAGIRI"
    },
    {
        "area": "Tangar B.O",
        "pincode": "415712",
        "district": "RATNAGIRI"
    },
    {
        "area": "Taral B.O",
        "pincode": "416702",
        "district": "RATNAGIRI"
    },
    {
        "area": "Tarval B.O",
        "pincode": "415620",
        "district": "RATNAGIRI"
    },
    {
        "area": "Tavsal B.O",
        "pincode": "415613",
        "district": "RATNAGIRI"
    },
    {
        "area": "Tembye B.O",
        "pincode": "415612",
        "district": "RATNAGIRI"
    },
    {
        "area": "Teru B.O",
        "pincode": "415605",
        "district": "RATNAGIRI"
    },
    {
        "area": "Terye B.O",
        "pincode": "415611",
        "district": "RATNAGIRI"
    },
    {
        "area": "Tetavali B.O",
        "pincode": "415711",
        "district": "RATNAGIRI"
    },
    {
        "area": "Tide B.O",
        "pincode": "415202",
        "district": "RATNAGIRI"
    },
    {
        "area": "Tike B.O",
        "pincode": "416712",
        "district": "RATNAGIRI"
    },
    {
        "area": "Tilak Memorial (RTG) S.O",
        "pincode": "415612",
        "district": "RATNAGIRI"
    },
    {
        "area": "Tisangi B.O",
        "pincode": "415709",
        "district": "RATNAGIRI"
    },
    {
        "area": "Tise B.O",
        "pincode": "415709",
        "district": "RATNAGIRI"
    },
    {
        "area": "Tiware B.O",
        "pincode": "415604",
        "district": "RATNAGIRI"
    },
    {
        "area": "Tiware B.O",
        "pincode": "416705",
        "district": "RATNAGIRI"
    },
    {
        "area": "Tiware Ghera Prachitgad B.O",
        "pincode": "415610",
        "district": "RATNAGIRI"
    },
    {
        "area": "Tiware Medhe Tarfe Devale",
        "pincode": "415801",
        "district": "RATNAGIRI"
    },
    {
        "area": "Tonade B.O",
        "pincode": "415612",
        "district": "RATNAGIRI"
    },
    {
        "area": "Tondali B.O",
        "pincode": "415641",
        "district": "RATNAGIRI"
    },
    {
        "area": "Tulsani B.O",
        "pincode": "415804",
        "district": "RATNAGIRI"
    },
    {
        "area": "Tulshi B.O",
        "pincode": "415203",
        "district": "RATNAGIRI"
    },
    {
        "area": "Tulshi Khurd B.O",
        "pincode": "415640",
        "district": "RATNAGIRI"
    },
    {
        "area": "Tural B.O",
        "pincode": "415609",
        "district": "RATNAGIRI"
    },
    {
        "area": "Turambav B.O",
        "pincode": "415641",
        "district": "RATNAGIRI"
    },
    {
        "area": "Ubhale B.O",
        "pincode": "415702",
        "district": "RATNAGIRI"
    },
    {
        "area": "Uchat B.O",
        "pincode": "415715",
        "district": "RATNAGIRI"
    },
    {
        "area": "Udhale Budruk B.O",
        "pincode": "415640",
        "district": "RATNAGIRI"
    },
    {
        "area": "Ujgaon B.O",
        "pincode": "415804",
        "district": "RATNAGIRI"
    },
    {
        "area": "Ukshi B.O",
        "pincode": "415637",
        "district": "RATNAGIRI"
    },
    {
        "area": "Umare B.O",
        "pincode": "415610",
        "district": "RATNAGIRI"
    },
    {
        "area": "Umbarghar B.O",
        "pincode": "415706",
        "district": "RATNAGIRI"
    },
    {
        "area": "Umbarle B.O",
        "pincode": "415712",
        "district": "RATNAGIRI"
    },
    {
        "area": "Umrath B.O",
        "pincode": "415728",
        "district": "RATNAGIRI"
    },
    {
        "area": "Umroli B.O",
        "pincode": "415702",
        "district": "RATNAGIRI"
    },
    {
        "area": "Umroli B.O",
        "pincode": "415208",
        "district": "RATNAGIRI"
    },
    {
        "area": "Upale B.O",
        "pincode": "416712",
        "district": "RATNAGIRI"
    },
    {
        "area": "Upale B.O",
        "pincode": "416702",
        "district": "RATNAGIRI"
    },
    {
        "area": "Vadad B.O",
        "pincode": "415701",
        "district": "RATNAGIRI"
    },
    {
        "area": "Vadad Hasol B.O",
        "pincode": "416713",
        "district": "RATNAGIRI"
    },
    {
        "area": "Vadgaon B.O",
        "pincode": "416701",
        "district": "RATNAGIRI"
    },
    {
        "area": "Vahal B.O",
        "pincode": "415641",
        "district": "RATNAGIRI"
    },
    {
        "area": "Vakavali S.O",
        "pincode": "415711",
        "district": "RATNAGIRI"
    },
    {
        "area": "Valote B.O",
        "pincode": "415202",
        "district": "RATNAGIRI"
    },
    {
        "area": "Vandri B.O",
        "pincode": "415637",
        "district": "RATNAGIRI"
    },
    {
        "area": "Vangule B.O",
        "pincode": "416701",
        "district": "RATNAGIRI"
    },
    {
        "area": "Vanzole B.O",
        "pincode": "415804",
        "district": "RATNAGIRI"
    },
    {
        "area": "Varawade B.O",
        "pincode": "415620",
        "district": "RATNAGIRI"
    },
    {
        "area": "Varnoshi Tarf Panchanadi B.O",
        "pincode": "415712",
        "district": "RATNAGIRI"
    },
    {
        "area": "Varveli B.O",
        "pincode": "415703",
        "district": "RATNAGIRI"
    },
    {
        "area": "Veer B.O",
        "pincode": "415641",
        "district": "RATNAGIRI"
    },
    {
        "area": "Vehele B.O",
        "pincode": "415604",
        "district": "RATNAGIRI"
    },
    {
        "area": "Velamb B.O",
        "pincode": "415724",
        "district": "RATNAGIRI"
    },
    {
        "area": "Velas B.O",
        "pincode": "415208",
        "district": "RATNAGIRI"
    },
    {
        "area": "Veldur B.O",
        "pincode": "415703",
        "district": "RATNAGIRI"
    },
    {
        "area": "Velvand B.O",
        "pincode": "415619",
        "district": "RATNAGIRI"
    },
    {
        "area": "Velvi B.O",
        "pincode": "415712",
        "district": "RATNAGIRI"
    },
    {
        "area": "Veral B.O",
        "pincode": "415621",
        "district": "RATNAGIRI"
    },
    {
        "area": "Veral B.O",
        "pincode": "416712",
        "district": "RATNAGIRI"
    },
    {
        "area": "Veravali Budruk B.O",
        "pincode": "416701",
        "district": "RATNAGIRI"
    },
    {
        "area": "Veravali Khurd B.O",
        "pincode": "416701",
        "district": "RATNAGIRI"
    },
    {
        "area": "Veshvi S.O",
        "pincode": "415208",
        "district": "RATNAGIRI"
    },
    {
        "area": "Vetoshi B.O",
        "pincode": "415617",
        "district": "RATNAGIRI"
    },
    {
        "area": "Vhel B.O",
        "pincode": "415643",
        "district": "RATNAGIRI"
    },
    {
        "area": "Vilavade B.O",
        "pincode": "415643",
        "district": "RATNAGIRI"
    },
    {
        "area": "Vilye B.O",
        "pincode": "416702",
        "district": "RATNAGIRI"
    },
    {
        "area": "Visapur B.O",
        "pincode": "415716",
        "district": "RATNAGIRI"
    },
    {
        "area": "Wadavali B.O",
        "pincode": "416705",
        "district": "RATNAGIRI"
    },
    {
        "area": "Waghambe B.O",
        "pincode": "415728",
        "district": "RATNAGIRI"
    },
    {
        "area": "Waghangaon B.O",
        "pincode": "415643",
        "district": "RATNAGIRI"
    },
    {
        "area": "Waghivare B.O",
        "pincode": "415701",
        "district": "RATNAGIRI"
    },
    {
        "area": "Waghrat B.O",
        "pincode": "416712",
        "district": "RATNAGIRI"
    },
    {
        "area": "Waingane B.O",
        "pincode": "415804",
        "district": "RATNAGIRI"
    },
    {
        "area": "Waked B.O",
        "pincode": "415643",
        "district": "RATNAGIRI"
    },
    {
        "area": "Walope B.O",
        "pincode": "415605",
        "district": "RATNAGIRI"
    },
    {
        "area": "Walye B.O",
        "pincode": "416702",
        "district": "RATNAGIRI"
    },
    {
        "area": "Wanke B.O",
        "pincode": "415803",
        "district": "RATNAGIRI"
    },
    {
        "area": "Washi Tarf Devrukh B.O",
        "pincode": "415804",
        "district": "RATNAGIRI"
    },
    {
        "area": "Washi Tarf Sangmeshwar B.O",
        "pincode": "415611",
        "district": "RATNAGIRI"
    },
    {
        "area": "Watad B.O",
        "pincode": "415613",
        "district": "RATNAGIRI"
    },
    {
        "area": "Watul S.O",
        "pincode": "415643",
        "district": "RATNAGIRI"
    },
    {
        "area": "Wave B.O",
        "pincode": "415718",
        "district": "RATNAGIRI"
    },
    {
        "area": "Wavghar B.O",
        "pincode": "415711",
        "district": "RATNAGIRI"
    },
    {
        "area": "Welneshwar S.O",
        "pincode": "415729",
        "district": "RATNAGIRI"
    },
    {
        "area": "Yegaon B.O",
        "pincode": "415607",
        "district": "RATNAGIRI"
    },
    {
        "area": "Yelvan B.O",
        "pincode": "416704",
        "district": "RATNAGIRI"
    },
    {
        "area": "Yerdav B.O",
        "pincode": "416704",
        "district": "RATNAGIRI"
    },
    {
        "area": "Zapade B.O",
        "pincode": "416701",
        "district": "RATNAGIRI"
    },
    {
        "area": "Zare Wadi B.O",
        "pincode": "415619",
        "district": "RATNAGIRI"
    },
    {
        "area": "Zombadi B.O",
        "pincode": "415702",
        "district": "RATNAGIRI"
    },
    {
        "area": "",
        "pincode": "",
        "district": ""
    }
]