[
    {
        "area": "Achara S.O",
        "pincode": "416614",
        "district": "SINDHUDURG"
    },
    {
        "area": "Achirne B.O",
        "pincode": "416810",
        "district": "SINDHUDURG"
    },
    {
        "area": "Adavli B.O",
        "pincode": "416614",
        "district": "SINDHUDURG"
    },
    {
        "area": "Adeli B.O",
        "pincode": "416516",
        "district": "SINDHUDURG"
    },
    {
        "area": "Ajgaon B.O",
        "pincode": "416518",
        "district": "SINDHUDURG"
    },
    {
        "area": "Akeri B.O",
        "pincode": "416519",
        "district": "SINDHUDURG"
    },
    {
        "area": "Akhavane B.O",
        "pincode": "416813",
        "district": "SINDHUDURG"
    },
    {
        "area": "Ambegaon B.O",
        "pincode": "416519",
        "district": "SINDHUDURG"
    },
    {
        "area": "Amberi B.O",
        "pincode": "416605",
        "district": "SINDHUDURG"
    },
    {
        "area": "Amboli B.O",
        "pincode": "416550",
        "district": "SINDHUDURG"
    },
    {
        "area": "Ambrad S.O",
        "pincode": "416628",
        "district": "SINDHUDURG"
    },
    {
        "area": "Anav B.O",
        "pincode": "416812",
        "district": "SINDHUDURG"
    },
    {
        "area": "Andurla B.O",
        "pincode": "416520",
        "district": "SINDHUDURG"
    },
    {
        "area": "Ansur B.O",
        "pincode": "416516",
        "district": "SINDHUDURG"
    },
    {
        "area": "Aravli B.O",
        "pincode": "416518",
        "district": "SINDHUDURG"
    },
    {
        "area": "Are B.O",
        "pincode": "416611",
        "district": "SINDHUDURG"
    },
    {
        "area": "Aronda S.O",
        "pincode": "416513",
        "district": "SINDHUDURG"
    },
    {
        "area": "Aros B.O",
        "pincode": "416514",
        "district": "SINDHUDURG"
    },
    {
        "area": "Arule B.O",
        "pincode": "416810",
        "district": "SINDHUDURG"
    },
    {
        "area": "Asalda B.O",
        "pincode": "416610",
        "district": "SINDHUDURG"
    },
    {
        "area": "Asoli B.O",
        "pincode": "416518",
        "district": "SINDHUDURG"
    },
    {
        "area": "Asolipal B.O",
        "pincode": "416516",
        "district": "SINDHUDURG"
    },
    {
        "area": "Asrondi B.O",
        "pincode": "416602",
        "district": "SINDHUDURG"
    },
    {
        "area": "Avalegaon B.O",
        "pincode": "416521",
        "district": "SINDHUDURG"
    },
    {
        "area": "Ayee B.O",
        "pincode": "416512",
        "district": "SINDHUDURG"
    },
    {
        "area": "Aynal B.O",
        "pincode": "416602",
        "district": "SINDHUDURG"
    },
    {
        "area": "Bambuli B.O",
        "pincode": "416520",
        "district": "SINDHUDURG"
    },
    {
        "area": "Banda S.O (Sindhudurg)",
        "pincode": "416511",
        "district": "SINDHUDURG"
    },
    {
        "area": "Bandivade B.O",
        "pincode": "416608",
        "district": "SINDHUDURG"
    },
    {
        "area": "Baparde B.O",
        "pincode": "416613",
        "district": "SINDHUDURG"
    },
    {
        "area": "Bav B.O",
        "pincode": "416520",
        "district": "SINDHUDURG"
    },
    {
        "area": "Belnekhurd B.O",
        "pincode": "416601",
        "district": "SINDHUDURG"
    },
    {
        "area": "Bhadgaon Budruk B.O",
        "pincode": "416521",
        "district": "SINDHUDURG"
    },
    {
        "area": "Bhalaval B.O",
        "pincode": "416511",
        "district": "SINDHUDURG"
    },
    {
        "area": "Bharni B.O",
        "pincode": "416632",
        "district": "SINDHUDURG"
    },
    {
        "area": "Bharni B.O",
        "pincode": "416602",
        "district": "SINDHUDURG"
    },
    {
        "area": "Bhirvande B.O",
        "pincode": "416609",
        "district": "SINDHUDURG"
    },
    {
        "area": "Bhogave B.O",
        "pincode": "416523",
        "district": "SINDHUDURG"
    },
    {
        "area": "Bhuibavda B.O",
        "pincode": "416813",
        "district": "SINDHUDURG"
    },
    {
        "area": "Bibavane B.O",
        "pincode": "416520",
        "district": "SINDHUDURG"
    },
    {
        "area": "Bidwadi B.O",
        "pincode": "416602",
        "district": "SINDHUDURG"
    },
    {
        "area": "Bilwas B.o",
        "pincode": "416608",
        "district": "SINDHUDURG"
    },
    {
        "area": "Bordave B.O",
        "pincode": "416603",
        "district": "SINDHUDURG"
    },
    {
        "area": "Budhavale B.O",
        "pincode": "416616",
        "district": "SINDHUDURG"
    },
    {
        "area": "Burambavade B.O",
        "pincode": "416811",
        "district": "SINDHUDURG"
    },
    {
        "area": "Chafekhol B.O",
        "pincode": "416604",
        "district": "SINDHUDURG"
    },
    {
        "area": "CHARATHA B.O",
        "pincode": "416511",
        "district": "SINDHUDURG"
    },
    {
        "area": "Chendavan B.O",
        "pincode": "416524",
        "district": "SINDHUDURG"
    },
    {
        "area": "Chindar B.O",
        "pincode": "416614",
        "district": "SINDHUDURG"
    },
    {
        "area": "Chindar Bazar B.O",
        "pincode": "416614",
        "district": "SINDHUDURG"
    },
    {
        "area": "Chouke S.O",
        "pincode": "416605",
        "district": "SINDHUDURG"
    },
    {
        "area": "Choukul B.O",
        "pincode": "416550",
        "district": "SINDHUDURG"
    },
    {
        "area": "Dabhachiwadi B.O",
        "pincode": "416812",
        "district": "SINDHUDURG"
    },
    {
        "area": "Dabhole B.O",
        "pincode": "416612",
        "district": "SINDHUDURG"
    },
    {
        "area": "Dabholi B.O",
        "pincode": "416516",
        "district": "SINDHUDURG"
    },
    {
        "area": "Dahibav B.O",
        "pincode": "416630",
        "district": "SINDHUDURG"
    },
    {
        "area": "Damre B.O",
        "pincode": "416601",
        "district": "SINDHUDURG"
    },
    {
        "area": "Danoli B.O",
        "pincode": "416550",
        "district": "SINDHUDURG"
    },
    {
        "area": "Dariste B.O",
        "pincode": "416609",
        "district": "SINDHUDURG"
    },
    {
        "area": "Degave B.O",
        "pincode": "416511",
        "district": "SINDHUDURG"
    },
    {
        "area": "Deulwada B.O",
        "pincode": "416608",
        "district": "SINDHUDURG"
    },
    {
        "area": "Deulwada Nerur S.O",
        "pincode": "416525",
        "district": "SINDHUDURG"
    },
    {
        "area": "Devbag B.O",
        "pincode": "416606",
        "district": "SINDHUDURG"
    },
    {
        "area": "Devgad S.O",
        "pincode": "416613",
        "district": "SINDHUDURG"
    },
    {
        "area": "Devgad Sub Div.",
        "pincode": "416801",
        "district": "SINDHUDURG"
    },
    {
        "area": "Devli B.O",
        "pincode": "416606",
        "district": "SINDHUDURG"
    },
    {
        "area": "Devsu B.O",
        "pincode": "416550",
        "district": "SINDHUDURG"
    },
    {
        "area": "Dhakore B.O",
        "pincode": "416518",
        "district": "SINDHUDURG"
    },
    {
        "area": "Dhamapur B.O",
        "pincode": "416605",
        "district": "SINDHUDURG"
    },
    {
        "area": "Digas B.O",
        "pincode": "416521",
        "district": "SINDHUDURG"
    },
    {
        "area": "Digavle B.O",
        "pincode": "416609",
        "district": "SINDHUDURG"
    },
    {
        "area": "Dingane B.O",
        "pincode": "416511",
        "district": "SINDHUDURG"
    },
    {
        "area": "DISTRICT BAG OFFICE KUDAL",
        "pincode": "416520",
        "district": "SINDHUDURG"
    },
    {
        "area": "Dodamarg S.O",
        "pincode": "416512",
        "district": "SINDHUDURG"
    },
    {
        "area": "Dukanwad B.O",
        "pincode": "416519",
        "district": "SINDHUDURG"
    },
    {
        "area": "Gadhitamhane B.O",
        "pincode": "416611",
        "district": "SINDHUDURG"
    },
    {
        "area": "Gadmath B.O",
        "pincode": "416810",
        "district": "SINDHUDURG"
    },
    {
        "area": "Gaudwadi B.O",
        "pincode": "416614",
        "district": "SINDHUDURG"
    },
    {
        "area": "Gavane B.O",
        "pincode": "416801",
        "district": "SINDHUDURG"
    },
    {
        "area": "Gavrai B.O",
        "pincode": "416534",
        "district": "SINDHUDURG"
    },
    {
        "area": "Ghavanale B.O",
        "pincode": "416520",
        "district": "SINDHUDURG"
    },
    {
        "area": "Ghonsari B.O",
        "pincode": "416601",
        "district": "SINDHUDURG"
    },
    {
        "area": "Ghotage B.O",
        "pincode": "416632",
        "district": "SINDHUDURG"
    },
    {
        "area": "Ghotage B.O",
        "pincode": "416512",
        "district": "SINDHUDURG"
    },
    {
        "area": "Ghotagewadi B.O",
        "pincode": "416549",
        "district": "SINDHUDURG"
    },
    {
        "area": "Girye B.O",
        "pincode": "416806",
        "district": "SINDHUDURG"
    },
    {
        "area": "Golvan B.O",
        "pincode": "416604",
        "district": "SINDHUDURG"
    },
    {
        "area": "Gopuri B.O",
        "pincode": "416602",
        "district": "SINDHUDURG"
    },
    {
        "area": "Gothane B.O",
        "pincode": "416616",
        "district": "SINDHUDURG"
    },
    {
        "area": "Gothos B.O",
        "pincode": "416519",
        "district": "SINDHUDURG"
    },
    {
        "area": "Goveri B.O",
        "pincode": "416520",
        "district": "SINDHUDURG"
    },
    {
        "area": "Hadi S.O",
        "pincode": "416626",
        "district": "SINDHUDURG"
    },
    {
        "area": "Hadpid B.O",
        "pincode": "416610",
        "district": "SINDHUDURG"
    },
    {
        "area": "Halval B.O",
        "pincode": "416602",
        "district": "SINDHUDURG"
    },
    {
        "area": "Harkul Budruk B.O",
        "pincode": "416602",
        "district": "SINDHUDURG"
    },
    {
        "area": "Harkul Khurd B.O",
        "pincode": "416601",
        "district": "SINDHUDURG"
    },
    {
        "area": "Hedul B.O",
        "pincode": "416603",
        "district": "SINDHUDURG"
    },
    {
        "area": "Het B.O",
        "pincode": "416813",
        "district": "SINDHUDURG"
    },
    {
        "area": "Hindale B.O",
        "pincode": "416630",
        "district": "SINDHUDURG"
    },
    {
        "area": "Hirlewadi B.O",
        "pincode": "416614",
        "district": "SINDHUDURG"
    },
    {
        "area": "Hirlok B.O",
        "pincode": "416520",
        "district": "SINDHUDURG"
    },
    {
        "area": "Hiwale B.O",
        "pincode": "416603",
        "district": "SINDHUDURG"
    },
    {
        "area": "Hodavade B.O",
        "pincode": "416529",
        "district": "SINDHUDURG"
    },
    {
        "area": "Humarmala B.O",
        "pincode": "416812",
        "district": "SINDHUDURG"
    },
    {
        "area": "Humbrat B.O",
        "pincode": "416602",
        "district": "SINDHUDURG"
    },
    {
        "area": "Ilye B.O",
        "pincode": "416612",
        "district": "SINDHUDURG"
    },
    {
        "area": "Industrial Area Pinguli S.O",
        "pincode": "416528",
        "district": "SINDHUDURG"
    },
    {
        "area": "Insuli B.O",
        "pincode": "416511",
        "district": "SINDHUDURG"
    },
    {
        "area": "Jambhavade B.O",
        "pincode": "416810",
        "district": "SINDHUDURG"
    },
    {
        "area": "Jambhavade S.O",
        "pincode": "416632",
        "district": "SINDHUDURG"
    },
    {
        "area": "Jamsande S.O",
        "pincode": "416612",
        "district": "SINDHUDURG"
    },
    {
        "area": "Janavali B.O",
        "pincode": "416602",
        "district": "SINDHUDURG"
    },
    {
        "area": "Kadaval S.O",
        "pincode": "416521",
        "district": "SINDHUDURG"
    },
    {
        "area": "Kalane B.O",
        "pincode": "416511",
        "district": "SINDHUDURG"
    },
    {
        "area": "Kaleli B.O",
        "pincode": "416519",
        "district": "SINDHUDURG"
    },
    {
        "area": "Kalmath B.O",
        "pincode": "416602",
        "district": "SINDHUDURG"
    },
    {
        "area": "Kalmist S.O",
        "pincode": "416531",
        "district": "SINDHUDURG"
    },
    {
        "area": "Kalse B.O",
        "pincode": "416605",
        "district": "SINDHUDURG"
    },
    {
        "area": "Kalsuli S.O",
        "pincode": "416620",
        "district": "SINDHUDURG"
    },
    {
        "area": "Kandalgaon B.O",
        "pincode": "416608",
        "district": "SINDHUDURG"
    },
    {
        "area": "Kankavali Sub Div.",
        "pincode": "416602",
        "district": "SINDHUDURG"
    },
    {
        "area": "Kankavli S.O",
        "pincode": "416602",
        "district": "SINDHUDURG"
    },
    {
        "area": "Karanje B.O",
        "pincode": "416602",
        "district": "SINDHUDURG"
    },
    {
        "area": "Karivade B.O",
        "pincode": "416531",
        "district": "SINDHUDURG"
    },
    {
        "area": "Karliwadi B.O",
        "pincode": "416523",
        "district": "SINDHUDURG"
    },
    {
        "area": "Karul B.O",
        "pincode": "416601",
        "district": "SINDHUDURG"
    },
    {
        "area": "Karulbavada B.O",
        "pincode": "416810",
        "district": "SINDHUDURG"
    },
    {
        "area": "Kas B.O",
        "pincode": "416514",
        "district": "SINDHUDURG"
    },
    {
        "area": "Kasal S.O",
        "pincode": "416603",
        "district": "SINDHUDURG"
    },
    {
        "area": "Kasaral B.O",
        "pincode": "416602",
        "district": "SINDHUDURG"
    },
    {
        "area": "Kasarde B.O",
        "pincode": "416801",
        "district": "SINDHUDURG"
    },
    {
        "area": "Kasavan B.O",
        "pincode": "416602",
        "district": "SINDHUDURG"
    },
    {
        "area": "Katta B.O",
        "pincode": "416612",
        "district": "SINDHUDURG"
    },
    {
        "area": "Katta S.O",
        "pincode": "416604",
        "district": "SINDHUDURG"
    },
    {
        "area": "Kavathani B.O",
        "pincode": "416514",
        "district": "SINDHUDURG"
    },
    {
        "area": "Kavathi B.O",
        "pincode": "416524",
        "district": "SINDHUDURG"
    },
    {
        "area": "Kelus B.O",
        "pincode": "416520",
        "district": "SINDHUDURG"
    },
    {
        "area": "Ker B.O",
        "pincode": "416549",
        "district": "SINDHUDURG"
    },
    {
        "area": "Keravade B.O",
        "pincode": "416520",
        "district": "SINDHUDURG"
    },
    {
        "area": "Khaida B.O",
        "pincode": "416608",
        "district": "SINDHUDURG"
    },
    {
        "area": "Khambale B.O",
        "pincode": "416810",
        "district": "SINDHUDURG"
    },
    {
        "area": "Khanoli B.O",
        "pincode": "416516",
        "district": "SINDHUDURG"
    },
    {
        "area": "Kharepatan S.O",
        "pincode": "416703",
        "district": "SINDHUDURG"
    },
    {
        "area": "Khavane B.O",
        "pincode": "416522",
        "district": "SINDHUDURG"
    },
    {
        "area": "Khotale B.O",
        "pincode": "416603",
        "district": "SINDHUDURG"
    },
    {
        "area": "Khudi B.O",
        "pincode": "416611",
        "district": "SINDHUDURG"
    },
    {
        "area": "Khutvalwadi B.O",
        "pincode": "416520",
        "district": "SINDHUDURG"
    },
    {
        "area": "Kinjavade B.O",
        "pincode": "416611",
        "district": "SINDHUDURG"
    },
    {
        "area": "Kirlos B.O",
        "pincode": "416616",
        "district": "SINDHUDURG"
    },
    {
        "area": "Kochara B.O",
        "pincode": "416522",
        "district": "SINDHUDURG"
    },
    {
        "area": "Kokisara B.O",
        "pincode": "416810",
        "district": "SINDHUDURG"
    },
    {
        "area": "Kolamb B.O",
        "pincode": "416626",
        "district": "SINDHUDURG"
    },
    {
        "area": "Kolgaon B.O",
        "pincode": "416519",
        "district": "SINDHUDURG"
    },
    {
        "area": "Koloshi B.O",
        "pincode": "416610",
        "district": "SINDHUDURG"
    },
    {
        "area": "Kolzar B.O",
        "pincode": "416511",
        "district": "SINDHUDURG"
    },
    {
        "area": "Konal B.O",
        "pincode": "416549",
        "district": "SINDHUDURG"
    },
    {
        "area": "Konalkatta Colony S.O",
        "pincode": "416549",
        "district": "SINDHUDURG"
    },
    {
        "area": "Korla B.O",
        "pincode": "416703",
        "district": "SINDHUDURG"
    },
    {
        "area": "Kotkamte B.O",
        "pincode": "416611",
        "district": "SINDHUDURG"
    },
    {
        "area": "Kudal Audyogik Samuha S.O",
        "pincode": "416550",
        "district": "SINDHUDURG"
    },
    {
        "area": "Kudal S.O (Sindhudurg)",
        "pincode": "416520",
        "district": "SINDHUDURG"
    },
    {
        "area": "KUDAL SORTING",
        "pincode": "416520",
        "district": "SINDHUDURG"
    },
    {
        "area": "Kudal Sorting L2S",
        "pincode": "416520",
        "district": "SINDHUDURG"
    },
    {
        "area": "Kudal Sorting L2U",
        "pincode": "416520",
        "district": "SINDHUDURG"
    },
    {
        "area": "Kudase B.O",
        "pincode": "416512",
        "district": "SINDHUDURG"
    },
    {
        "area": "Kumbharmath B.O",
        "pincode": "416606",
        "district": "SINDHUDURG"
    },
    {
        "area": "Kumbhavade B.O",
        "pincode": "416609",
        "district": "SINDHUDURG"
    },
    {
        "area": "Kumbhavade B.O",
        "pincode": "416810",
        "district": "SINDHUDURG"
    },
    {
        "area": "Kumbral B.O",
        "pincode": "416511",
        "district": "SINDHUDURG"
    },
    {
        "area": "Kunde B.O",
        "pincode": "416628",
        "district": "SINDHUDURG"
    },
    {
        "area": "Kunkavale B.O",
        "pincode": "416604",
        "district": "SINDHUDURG"
    },
    {
        "area": "Kunkavan B.O",
        "pincode": "416703",
        "district": "SINDHUDURG"
    },
    {
        "area": "Kunkeri B.O",
        "pincode": "416518",
        "district": "SINDHUDURG"
    },
    {
        "area": "Kunkeshwar B.O",
        "pincode": "416612",
        "district": "SINDHUDURG"
    },
    {
        "area": "Kupavade B.O",
        "pincode": "416632",
        "district": "SINDHUDURG"
    },
    {
        "area": "Kurangavane B.O",
        "pincode": "416703",
        "district": "SINDHUDURG"
    },
    {
        "area": "Kurli B.O",
        "pincode": "416601",
        "district": "SINDHUDURG"
    },
    {
        "area": "Kusur B.O",
        "pincode": "416813",
        "district": "SINDHUDURG"
    },
    {
        "area": "Kuvale B.O",
        "pincode": "416610",
        "district": "SINDHUDURG"
    },
    {
        "area": "Lore i B.O",
        "pincode": "416601",
        "district": "SINDHUDURG"
    },
    {
        "area": "Lore-II B.O",
        "pincode": "416601",
        "district": "SINDHUDURG"
    },
    {
        "area": "Madkhol B.O",
        "pincode": "416531",
        "district": "SINDHUDURG"
    },
    {
        "area": "MADURA B.O",
        "pincode": "416514",
        "district": "SINDHUDURG"
    },
    {
        "area": "Madyachiwadi B.O",
        "pincode": "416520",
        "district": "SINDHUDURG"
    },
    {
        "area": "Mahadevache Kervade B.O",
        "pincode": "416519",
        "district": "SINDHUDURG"
    },
    {
        "area": "Mahalunge B.O",
        "pincode": "416811",
        "district": "SINDHUDURG"
    },
    {
        "area": "Main B.O",
        "pincode": "416602",
        "district": "SINDHUDURG"
    },
    {
        "area": "Majgaon B.O",
        "pincode": "416518",
        "district": "SINDHUDURG"
    },
    {
        "area": "Malewad B.O",
        "pincode": "416518",
        "district": "SINDHUDURG"
    },
    {
        "area": "Malgaon B.O",
        "pincode": "416518",
        "district": "SINDHUDURG"
    },
    {
        "area": "Malgaon B.O",
        "pincode": "416608",
        "district": "SINDHUDURG"
    },
    {
        "area": "Malond B.O",
        "pincode": "416608",
        "district": "SINDHUDURG"
    },
    {
        "area": "Malvan H.O",
        "pincode": "416606",
        "district": "SINDHUDURG"
    },
    {
        "area": "Malvan Sub Div.",
        "pincode": "416606",
        "district": "SINDHUDURG"
    },
    {
        "area": "Manche B.O",
        "pincode": "416811",
        "district": "SINDHUDURG"
    },
    {
        "area": "Mandkuli B.O",
        "pincode": "416520",
        "district": "SINDHUDURG"
    },
    {
        "area": "Maneri B.O",
        "pincode": "416512",
        "district": "SINDHUDURG"
    },
    {
        "area": "Mangaon S.O (Sindhudurg)",
        "pincode": "416519",
        "district": "SINDHUDURG"
    },
    {
        "area": "Mangavli B.O",
        "pincode": "416813",
        "district": "SINDHUDURG"
    },
    {
        "area": "Mangeli B.O",
        "pincode": "416512",
        "district": "SINDHUDURG"
    },
    {
        "area": "Masde B.O",
        "pincode": "416608",
        "district": "SINDHUDURG"
    },
    {
        "area": "Masura S.O",
        "pincode": "416608",
        "district": "SINDHUDURG"
    },
    {
        "area": "Math B.O",
        "pincode": "416516",
        "district": "SINDHUDURG"
    },
    {
        "area": "Math Budruk B.O",
        "pincode": "416616",
        "district": "SINDHUDURG"
    },
    {
        "area": "Matond B.O",
        "pincode": "416529",
        "district": "SINDHUDURG"
    },
    {
        "area": "Mhapan B.O",
        "pincode": "416522",
        "district": "SINDHUDURG"
    },
    {
        "area": "Mithbav S.O",
        "pincode": "416615",
        "district": "SINDHUDURG"
    },
    {
        "area": "Mithmumbari B.O",
        "pincode": "416612",
        "district": "SINDHUDURG"
    },
    {
        "area": "Mogarne B.O",
        "pincode": "416604",
        "district": "SINDHUDURG"
    },
    {
        "area": "Mond S.O",
        "pincode": "416623",
        "district": "SINDHUDURG"
    },
    {
        "area": "Morgaon B.O",
        "pincode": "416511",
        "district": "SINDHUDURG"
    },
    {
        "area": "Mulde B.O",
        "pincode": "416520",
        "district": "SINDHUDURG"
    },
    {
        "area": "Munge B.O",
        "pincode": "416630",
        "district": "SINDHUDURG"
    },
    {
        "area": "Mutat S.O",
        "pincode": "416803",
        "district": "SINDHUDURG"
    },
    {
        "area": "Nad B.O",
        "pincode": "416801",
        "district": "SINDHUDURG"
    },
    {
        "area": "Nadan B.O",
        "pincode": "416805",
        "district": "SINDHUDURG"
    },
    {
        "area": "Nadgive B.O",
        "pincode": "416703",
        "district": "SINDHUDURG"
    },
    {
        "area": "Nadhavade B.O",
        "pincode": "416810",
        "district": "SINDHUDURG"
    },
    {
        "area": "Nagve B.O",
        "pincode": "416602",
        "district": "SINDHUDURG"
    },
    {
        "area": "Nandgaon B.O",
        "pincode": "416602",
        "district": "SINDHUDURG"
    },
    {
        "area": "Nandos B.O",
        "pincode": "416604",
        "district": "SINDHUDURG"
    },
    {
        "area": "Nandrukh B.O",
        "pincode": "416605",
        "district": "SINDHUDURG"
    },
    {
        "area": "Naneli B.O",
        "pincode": "416519",
        "district": "SINDHUDURG"
    },
    {
        "area": "Nanivade B.O",
        "pincode": "416703",
        "district": "SINDHUDURG"
    },
    {
        "area": "Napne B.O",
        "pincode": "416813",
        "district": "SINDHUDURG"
    },
    {
        "area": "Nardave B.O",
        "pincode": "416609",
        "district": "SINDHUDURG"
    },
    {
        "area": "Naringre S.O",
        "pincode": "416630",
        "district": "SINDHUDURG"
    },
    {
        "area": "Narur B.O",
        "pincode": "416519",
        "district": "SINDHUDURG"
    },
    {
        "area": "Natal B.O",
        "pincode": "416609",
        "district": "SINDHUDURG"
    },
    {
        "area": "Nemale B.O",
        "pincode": "416516",
        "district": "SINDHUDURG"
    },
    {
        "area": "Nerle B.O",
        "pincode": "416810",
        "district": "SINDHUDURG"
    },
    {
        "area": "Nerur B.O",
        "pincode": "416525",
        "district": "SINDHUDURG"
    },
    {
        "area": "Netarde B.O",
        "pincode": "416511",
        "district": "SINDHUDURG"
    },
    {
        "area": "Nhaveli B.O",
        "pincode": "416518",
        "district": "SINDHUDURG"
    },
    {
        "area": "Nigude B.O",
        "pincode": "416514",
        "district": "SINDHUDURG"
    },
    {
        "area": "Nileli B.O",
        "pincode": "416519",
        "district": "SINDHUDURG"
    },
    {
        "area": "Niravade B.O",
        "pincode": "416518",
        "district": "SINDHUDURG"
    },
    {
        "area": "Nirom B.O",
        "pincode": "416616",
        "district": "SINDHUDURG"
    },
    {
        "area": "Nirukhe B.O",
        "pincode": "416521",
        "district": "SINDHUDURG"
    },
    {
        "area": "Nivaje B.O",
        "pincode": "416519",
        "district": "SINDHUDURG"
    },
    {
        "area": "Niwatiwadi B.O",
        "pincode": "416522",
        "district": "SINDHUDURG"
    },
    {
        "area": "Oros Budruk B.O",
        "pincode": "416812",
        "district": "SINDHUDURG"
    },
    {
        "area": "Osargaon B.O",
        "pincode": "416603",
        "district": "SINDHUDURG"
    },
    {
        "area": "Otav B.O",
        "pincode": "416602",
        "district": "SINDHUDURG"
    },
    {
        "area": "Otavane B.O",
        "pincode": "416511",
        "district": "SINDHUDURG"
    },
    {
        "area": "Ovaliye B.O",
        "pincode": "416603",
        "district": "SINDHUDURG"
    },
    {
        "area": "Ozaram B.O",
        "pincode": "416801",
        "district": "SINDHUDURG"
    },
    {
        "area": "Padel S.O",
        "pincode": "416804",
        "district": "SINDHUDURG"
    },
    {
        "area": "Padve B.O",
        "pincode": "416534",
        "district": "SINDHUDURG"
    },
    {
        "area": "Palsamb B.O",
        "pincode": "416614",
        "district": "SINDHUDURG"
    },
    {
        "area": "Pandur B.O",
        "pincode": "416812",
        "district": "SINDHUDURG"
    },
    {
        "area": "Pangrad B.O",
        "pincode": "416521",
        "district": "SINDHUDURG"
    },
    {
        "area": "Parme B.O",
        "pincode": "416512",
        "district": "SINDHUDURG"
    },
    {
        "area": "Parula S.O",
        "pincode": "416523",
        "district": "SINDHUDURG"
    },
    {
        "area": "Pat S.O",
        "pincode": "416522",
        "district": "SINDHUDURG"
    },
    {
        "area": "Patgaon B.O",
        "pincode": "416811",
        "district": "SINDHUDURG"
    },
    {
        "area": "Pawashi B.O",
        "pincode": "416520",
        "district": "SINDHUDURG"
    },
    {
        "area": "Pendhari B.O",
        "pincode": "416811",
        "district": "SINDHUDURG"
    },
    {
        "area": "Pendhryachiwadi B.O",
        "pincode": "416529",
        "district": "SINDHUDURG"
    },
    {
        "area": "Pendur B.O",
        "pincode": "416604",
        "district": "SINDHUDURG"
    },
    {
        "area": "Phanasgaon S.O",
        "pincode": "416811",
        "district": "SINDHUDURG"
    },
    {
        "area": "Phondaghat S.O",
        "pincode": "416601",
        "district": "SINDHUDURG"
    },
    {
        "area": "Pikule B.O",
        "pincode": "416512",
        "district": "SINDHUDURG"
    },
    {
        "area": "Pinguli B.O",
        "pincode": "416528",
        "district": "SINDHUDURG"
    },
    {
        "area": "Pirawadi B.O",
        "pincode": "416614",
        "district": "SINDHUDURG"
    },
    {
        "area": "Poip B.O",
        "pincode": "416608",
        "district": "SINDHUDURG"
    },
    {
        "area": "Pokharan B.O",
        "pincode": "416628",
        "district": "SINDHUDURG"
    },
    {
        "area": "Pomburla B.O",
        "pincode": "416811",
        "district": "SINDHUDURG"
    },
    {
        "area": "Poyare B.O",
        "pincode": "416630",
        "district": "SINDHUDURG"
    },
    {
        "area": "Pural B.O",
        "pincode": "416805",
        "district": "SINDHUDURG"
    },
    {
        "area": "Ramgad S.O",
        "pincode": "416616",
        "district": "SINDHUDURG"
    },
    {
        "area": "Ran Bambuli B.O",
        "pincode": "416812",
        "district": "SINDHUDURG"
    },
    {
        "area": "Rathivade B.O",
        "pincode": "416616",
        "district": "SINDHUDURG"
    },
    {
        "area": "Redi S.O",
        "pincode": "416517",
        "district": "SINDHUDURG"
    },
    {
        "area": "Revandi B.O",
        "pincode": "416626",
        "district": "SINDHUDURG"
    },
    {
        "area": "Sadure B.O",
        "pincode": "416810",
        "district": "SINDHUDURG"
    },
    {
        "area": "Sakedi B.O",
        "pincode": "416602",
        "district": "SINDHUDURG"
    },
    {
        "area": "Salel B.O",
        "pincode": "416605",
        "district": "SINDHUDURG"
    },
    {
        "area": "Salgaon B.O",
        "pincode": "416519",
        "district": "SINDHUDURG"
    },
    {
        "area": "Salshi B.O",
        "pincode": "416610",
        "district": "SINDHUDURG"
    },
    {
        "area": "Sandave B.O",
        "pincode": "416616",
        "district": "SINDHUDURG"
    },
    {
        "area": "Sangeli B.O",
        "pincode": "416531",
        "district": "SINDHUDURG"
    },
    {
        "area": "Sangulwadi B.O",
        "pincode": "416810",
        "district": "SINDHUDURG"
    },
    {
        "area": "Sangve S.O",
        "pincode": "416609",
        "district": "SINDHUDURG"
    },
    {
        "area": "Sarambal B.O",
        "pincode": "416520",
        "district": "SINDHUDURG"
    },
    {
        "area": "Sarjekot Miryabanda B.O",
        "pincode": "416626",
        "district": "SINDHUDURG"
    },
    {
        "area": "Sarmale B.O",
        "pincode": "416511",
        "district": "SINDHUDURG"
    },
    {
        "area": "Sasoli B.O",
        "pincode": "416511",
        "district": "SINDHUDURG"
    },
    {
        "area": "Satarda S.O",
        "pincode": "416514",
        "district": "SINDHUDURG"
    },
    {
        "area": "Sateli Tarf Bhedshi SO",
        "pincode": "416549",
        "district": "SINDHUDURG"
    },
    {
        "area": "Sateli Traf Bhedshi B.O",
        "pincode": "416512",
        "district": "SINDHUDURG"
    },
    {
        "area": "Satose B.O",
        "pincode": "416514",
        "district": "SINDHUDURG"
    },
    {
        "area": "Savdav B.O",
        "pincode": "416602",
        "district": "SINDHUDURG"
    },
    {
        "area": "Sawantwadi H.O",
        "pincode": "416510",
        "district": "SINDHUDURG"
    },
    {
        "area": "Sawantwadi Sub Div.",
        "pincode": "416510",
        "district": "SINDHUDURG"
    },
    {
        "area": "Sherla B.O",
        "pincode": "416514",
        "district": "SINDHUDURG"
    },
    {
        "area": "Shidavane B.O",
        "pincode": "416801",
        "district": "SINDHUDURG"
    },
    {
        "area": "Shirange B.O",
        "pincode": "416512",
        "district": "SINDHUDURG"
    },
    {
        "area": "Shirgaon S.O",
        "pincode": "416610",
        "district": "SINDHUDURG"
    },
    {
        "area": "Shiroda S.O (Sindhudurg)",
        "pincode": "416518",
        "district": "SINDHUDURG"
    },
    {
        "area": "Shirshinge B.O",
        "pincode": "416531",
        "district": "SINDHUDURG"
    },
    {
        "area": "Shirval B.O",
        "pincode": "416620",
        "district": "SINDHUDURG"
    },
    {
        "area": "Shirvande B.O",
        "pincode": "416602",
        "district": "SINDHUDURG"
    },
    {
        "area": "Shivapur B.O",
        "pincode": "416519",
        "district": "SINDHUDURG"
    },
    {
        "area": "Shivdav B.O",
        "pincode": "416620",
        "district": "SINDHUDURG"
    },
    {
        "area": "Shravan B.O",
        "pincode": "416616",
        "district": "SINDHUDURG"
    },
    {
        "area": "SINDHUDURG DIVISION",
        "pincode": "416812",
        "district": "SINDHUDURG"
    },
    {
        "area": "Sindhudurgnagari MDG S.O",
        "pincode": "416812",
        "district": "SINDHUDURG"
    },
    {
        "area": "Sonavade B.O",
        "pincode": "416632",
        "district": "SINDHUDURG"
    },
    {
        "area": "Sonavade B.O",
        "pincode": "416520",
        "district": "SINDHUDURG"
    },
    {
        "area": "Sonurli B.O",
        "pincode": "416518",
        "district": "SINDHUDURG"
    },
    {
        "area": "Soundale B.O",
        "pincode": "416804",
        "district": "SINDHUDURG"
    },
    {
        "area": "SRO RMS BM DN KUDAL",
        "pincode": "416520",
        "district": "SINDHUDURG"
    },
    {
        "area": "Sukalwadi S.O",
        "pincode": "416534",
        "district": "SINDHUDURG"
    },
    {
        "area": "Tak B.O",
        "pincode": "416518",
        "district": "SINDHUDURG"
    },
    {
        "area": "Talavade B.O",
        "pincode": "416611",
        "district": "SINDHUDURG"
    },
    {
        "area": "Talavade S.O",
        "pincode": "416529",
        "district": "SINDHUDURG"
    },
    {
        "area": "Talavane B.O",
        "pincode": "416513",
        "district": "SINDHUDURG"
    },
    {
        "area": "Talebazar S.O",
        "pincode": "416611",
        "district": "SINDHUDURG"
    },
    {
        "area": "Talekhol B.O",
        "pincode": "416512",
        "district": "SINDHUDURG"
    },
    {
        "area": "Talera S.O (Sindhudurg)",
        "pincode": "416801",
        "district": "SINDHUDURG"
    },
    {
        "area": "Talgaon B.O",
        "pincode": "416534",
        "district": "SINDHUDURG"
    },
    {
        "area": "Talkat B.O",
        "pincode": "416511",
        "district": "SINDHUDURG"
    },
    {
        "area": "Tambaldeg B.O",
        "pincode": "416615",
        "district": "SINDHUDURG"
    },
    {
        "area": "Tambuli B.O",
        "pincode": "416511",
        "district": "SINDHUDURG"
    },
    {
        "area": "Taramumbari B.O",
        "pincode": "416613",
        "district": "SINDHUDURG"
    },
    {
        "area": "Tarandale B.O",
        "pincode": "416602",
        "district": "SINDHUDURG"
    },
    {
        "area": "Tarkarli B.O",
        "pincode": "416606",
        "district": "SINDHUDURG"
    },
    {
        "area": "Tembavli B.O",
        "pincode": "416612",
        "district": "SINDHUDURG"
    },
    {
        "area": "Tendoli B.O",
        "pincode": "416520",
        "district": "SINDHUDURG"
    },
    {
        "area": "Terawalewadi B.O",
        "pincode": "416523",
        "district": "SINDHUDURG"
    },
    {
        "area": "Terse Bambarde B.O",
        "pincode": "416520",
        "district": "SINDHUDURG"
    },
    {
        "area": "Tervan Medhe B.O",
        "pincode": "416549",
        "district": "SINDHUDURG"
    },
    {
        "area": "Thakurwadi B.O",
        "pincode": "416804",
        "district": "SINDHUDURG"
    },
    {
        "area": "Tiravade B.O",
        "pincode": "416604",
        "district": "SINDHUDURG"
    },
    {
        "area": "Tiravade B.O",
        "pincode": "416518",
        "district": "SINDHUDURG"
    },
    {
        "area": "Tirlot S.O",
        "pincode": "416807",
        "district": "SINDHUDURG"
    },
    {
        "area": "Tithavli B.O",
        "pincode": "416703",
        "district": "SINDHUDURG"
    },
    {
        "area": "Tondavali B.O",
        "pincode": "416626",
        "district": "SINDHUDURG"
    },
    {
        "area": "Tondavali B.O",
        "pincode": "416601",
        "district": "SINDHUDURG"
    },
    {
        "area": "Torsole B.O",
        "pincode": "416611",
        "district": "SINDHUDURG"
    },
    {
        "area": "Trimbak B.O",
        "pincode": "416614",
        "district": "SINDHUDURG"
    },
    {
        "area": "Tulas S.O",
        "pincode": "416515",
        "district": "SINDHUDURG"
    },
    {
        "area": "Tulsuli B.O",
        "pincode": "416520",
        "district": "SINDHUDURG"
    },
    {
        "area": "Ubhadanda B.O",
        "pincode": "416516",
        "district": "SINDHUDURG"
    },
    {
        "area": "Umbarde S.O",
        "pincode": "416813",
        "district": "SINDHUDURG"
    },
    {
        "area": "Upale B.O",
        "pincode": "416813",
        "district": "SINDHUDURG"
    },
    {
        "area": "Usap B.O",
        "pincode": "416512",
        "district": "SINDHUDURG"
    },
    {
        "area": "Vada S.O (Sindhudurg)",
        "pincode": "416805",
        "district": "SINDHUDURG"
    },
    {
        "area": "Vadivaravde B.O",
        "pincode": "416520",
        "district": "SINDHUDURG"
    },
    {
        "area": "Vados B.O",
        "pincode": "416519",
        "district": "SINDHUDURG"
    },
    {
        "area": "Vaibhavwadi S.O",
        "pincode": "416810",
        "district": "SINDHUDURG"
    },
    {
        "area": "Vajarat B.O",
        "pincode": "416516",
        "district": "SINDHUDURG"
    },
    {
        "area": "Valivande B.O",
        "pincode": "416611",
        "district": "SINDHUDURG"
    },
    {
        "area": "Varad B.O",
        "pincode": "416604",
        "district": "SINDHUDURG"
    },
    {
        "area": "Varavade B.O",
        "pincode": "416602",
        "district": "SINDHUDURG"
    },
    {
        "area": "Varde B.O",
        "pincode": "416521",
        "district": "SINDHUDURG"
    },
    {
        "area": "Vasoli B.O",
        "pincode": "416519",
        "district": "SINDHUDURG"
    },
    {
        "area": "Vazare B.O",
        "pincode": "416512",
        "district": "SINDHUDURG"
    },
    {
        "area": "Vengurla Camp S.O",
        "pincode": "416516",
        "district": "SINDHUDURG"
    },
    {
        "area": "Vengurla S.O",
        "pincode": "416516",
        "district": "SINDHUDURG"
    },
    {
        "area": "Veral B.O",
        "pincode": "416608",
        "district": "SINDHUDURG"
    },
    {
        "area": "Verle B.O",
        "pincode": "416531",
        "district": "SINDHUDURG"
    },
    {
        "area": "Vetal Bambarde B.O",
        "pincode": "416520",
        "district": "SINDHUDURG"
    },
    {
        "area": "Vetore B.O",
        "pincode": "416516",
        "district": "SINDHUDURG"
    },
    {
        "area": "Vijaydurg S.O",
        "pincode": "416806",
        "district": "SINDHUDURG"
    },
    {
        "area": "Vilvade B.O",
        "pincode": "416511",
        "district": "SINDHUDURG"
    },
    {
        "area": "Wadkhol B.O",
        "pincode": "416518",
        "district": "SINDHUDURG"
    },
    {
        "area": "Wafoli B.O",
        "pincode": "416511",
        "district": "SINDHUDURG"
    },
    {
        "area": "Wagheri B.O",
        "pincode": "416601",
        "district": "SINDHUDURG"
    },
    {
        "area": "Waghivare B.O",
        "pincode": "416801",
        "district": "SINDHUDURG"
    },
    {
        "area": "Waghotan B.O",
        "pincode": "416804",
        "district": "SINDHUDURG"
    },
    {
        "area": "Waingani B.O",
        "pincode": "416614",
        "district": "SINDHUDURG"
    },
    {
        "area": "Wainganiwadi B.O",
        "pincode": "416516",
        "district": "SINDHUDURG"
    },
    {
        "area": "Waingavde B.O",
        "pincode": "416603",
        "district": "SINDHUDURG"
    },
    {
        "area": "Wairy Bhutnath B.O",
        "pincode": "416606",
        "district": "SINDHUDURG"
    },
    {
        "area": "Walaval S.O",
        "pincode": "416524",
        "district": "SINDHUDURG"
    },
    {
        "area": "Waniwade B.O",
        "pincode": "416613",
        "district": "SINDHUDURG"
    },
    {
        "area": "Wargaon B.O",
        "pincode": "416801",
        "district": "SINDHUDURG"
    },
    {
        "area": "Zarap B.O",
        "pincode": "416519",
        "district": "SINDHUDURG"
    },
    {
        "area": "Zarebambar Vasahat B.O",
        "pincode": "416512",
        "district": "SINDHUDURG"
    },
    {
        "area": "Zolambe B.O",
        "pincode": "416511",
        "district": "SINDHUDURG"
    },
    {
        "area": "",
        "pincode": "",
        "district": ""
    },
    {
        "area": "",
        "pincode": "",
        "district": ""
    },
    {
        "area": "",
        "pincode": "",
        "district": ""
    },
    {
        "area": "",
        "pincode": "",
        "district": ""
    },
    {
        "area": "",
        "pincode": "",
        "district": ""
    },
    {
        "area": "",
        "pincode": "",
        "district": ""
    },
    {
        "area": "",
        "pincode": "",
        "district": ""
    },
    {
        "area": "",
        "pincode": "",
        "district": ""
    },
    {
        "area": "",
        "pincode": "",
        "district": ""
    },
    {
        "area": "",
        "pincode": "",
        "district": ""
    },
    {
        "area": "",
        "pincode": "",
        "district": ""
    },
    {
        "area": "",
        "pincode": "",
        "district": ""
    },
    {
        "area": "",
        "pincode": "",
        "district": ""
    },
    {
        "area": "",
        "pincode": "",
        "district": ""
    },
    {
        "area": "",
        "pincode": "",
        "district": ""
    },
    {
        "area": "",
        "pincode": "",
        "district": ""
    },
    {
        "area": "",
        "pincode": "",
        "district": ""
    },
    {
        "area": "",
        "pincode": "",
        "district": ""
    },
    {
        "area": "",
        "pincode": "",
        "district": ""
    },
    {
        "area": "",
        "pincode": "",
        "district": ""
    },
    {
        "area": "",
        "pincode": "",
        "district": ""
    },
    {
        "area": "",
        "pincode": "",
        "district": ""
    },
    {
        "area": "",
        "pincode": "",
        "district": ""
    },
    {
        "area": "",
        "pincode": "",
        "district": ""
    },
    {
        "area": "",
        "pincode": "",
        "district": ""
    },
    {
        "area": "",
        "pincode": "",
        "district": ""
    },
    {
        "area": "",
        "pincode": "",
        "district": ""
    },
    {
        "area": "",
        "pincode": "",
        "district": ""
    },
    {
        "area": "",
        "pincode": "",
        "district": ""
    },
    {
        "area": "",
        "pincode": "",
        "district": ""
    },
    {
        "area": "",
        "pincode": "",
        "district": ""
    },
    {
        "area": "",
        "pincode": "",
        "district": ""
    },
    {
        "area": "",
        "pincode": "",
        "district": ""
    },
    {
        "area": "",
        "pincode": "",
        "district": ""
    },
    {
        "area": "",
        "pincode": "",
        "district": ""
    },
    {
        "area": "",
        "pincode": "",
        "district": ""
    },
    {
        "area": "",
        "pincode": "",
        "district": ""
    },
    {
        "area": "",
        "pincode": "",
        "district": ""
    },
    {
        "area": "",
        "pincode": "",
        "district": ""
    },
    {
        "area": "",
        "pincode": "",
        "district": ""
    },
    {
        "area": "",
        "pincode": "",
        "district": ""
    },
    {
        "area": "",
        "pincode": "",
        "district": ""
    },
    {
        "area": "",
        "pincode": "",
        "district": ""
    },
    {
        "area": "",
        "pincode": "",
        "district": ""
    },
    {
        "area": "",
        "pincode": "",
        "district": ""
    },
    {
        "area": "",
        "pincode": "",
        "district": ""
    },
    {
        "area": "",
        "pincode": "",
        "district": ""
    },
    {
        "area": "",
        "pincode": "",
        "district": ""
    },
    {
        "area": "",
        "pincode": "",
        "district": ""
    },
    {
        "area": "",
        "pincode": "",
        "district": ""
    },
    {
        "area": "",
        "pincode": "",
        "district": ""
    },
    {
        "area": "",
        "pincode": "",
        "district": ""
    },
    {
        "area": "",
        "pincode": "",
        "district": ""
    },
    {
        "area": "",
        "pincode": "",
        "district": ""
    },
    {
        "area": "",
        "pincode": "",
        "district": ""
    },
    {
        "area": "",
        "pincode": "",
        "district": ""
    },
    {
        "area": "",
        "pincode": "",
        "district": ""
    },
    {
        "area": "",
        "pincode": "",
        "district": ""
    },
    {
        "area": "",
        "pincode": "",
        "district": ""
    },
    {
        "area": "",
        "pincode": "",
        "district": ""
    },
    {
        "area": "",
        "pincode": "",
        "district": ""
    },
    {
        "area": "",
        "pincode": "",
        "district": ""
    },
    {
        "area": "",
        "pincode": "",
        "district": ""
    },
    {
        "area": "",
        "pincode": "",
        "district": ""
    },
    {
        "area": "",
        "pincode": "",
        "district": ""
    },
    {
        "area": "",
        "pincode": "",
        "district": ""
    },
    {
        "area": "",
        "pincode": "",
        "district": ""
    },
    {
        "area": "",
        "pincode": "",
        "district": ""
    },
    {
        "area": "",
        "pincode": "",
        "district": ""
    },
    {
        "area": "",
        "pincode": "",
        "district": ""
    },
    {
        "area": "",
        "pincode": "",
        "district": ""
    },
    {
        "area": "",
        "pincode": "",
        "district": ""
    },
    {
        "area": "",
        "pincode": "",
        "district": ""
    },
    {
        "area": "",
        "pincode": "",
        "district": ""
    },
    {
        "area": "",
        "pincode": "",
        "district": ""
    },
    {
        "area": "",
        "pincode": "",
        "district": ""
    },
    {
        "area": "",
        "pincode": "",
        "district": ""
    },
    {
        "area": "",
        "pincode": "",
        "district": ""
    },
    {
        "area": "",
        "pincode": "",
        "district": ""
    },
    {
        "area": "",
        "pincode": "",
        "district": ""
    },
    {
        "area": "",
        "pincode": "",
        "district": ""
    },
    {
        "area": "",
        "pincode": "",
        "district": ""
    },
    {
        "area": "",
        "pincode": "",
        "district": ""
    },
    {
        "area": "",
        "pincode": "",
        "district": ""
    },
    {
        "area": "",
        "pincode": "",
        "district": ""
    },
    {
        "area": "",
        "pincode": "",
        "district": ""
    },
    {
        "area": "",
        "pincode": "",
        "district": ""
    },
    {
        "area": "",
        "pincode": "",
        "district": ""
    },
    {
        "area": "",
        "pincode": "",
        "district": ""
    },
    {
        "area": "",
        "pincode": "",
        "district": ""
    },
    {
        "area": "",
        "pincode": "",
        "district": ""
    },
    {
        "area": "",
        "pincode": "",
        "district": ""
    },
    {
        "area": "",
        "pincode": "",
        "district": ""
    },
    {
        "area": "",
        "pincode": "",
        "district": ""
    },
    {
        "area": "",
        "pincode": "",
        "district": ""
    },
    {
        "area": "",
        "pincode": "",
        "district": ""
    },
    {
        "area": "",
        "pincode": "",
        "district": ""
    },
    {
        "area": "",
        "pincode": "",
        "district": ""
    },
    {
        "area": "",
        "pincode": "",
        "district": ""
    },
    {
        "area": "",
        "pincode": "",
        "district": ""
    },
    {
        "area": "",
        "pincode": "",
        "district": ""
    },
    {
        "area": "",
        "pincode": "",
        "district": ""
    },
    {
        "area": "",
        "pincode": "",
        "district": ""
    },
    {
        "area": "",
        "pincode": "",
        "district": ""
    },
    {
        "area": "",
        "pincode": "",
        "district": ""
    },
    {
        "area": "",
        "pincode": "",
        "district": ""
    },
    {
        "area": "",
        "pincode": "",
        "district": ""
    },
    {
        "area": "",
        "pincode": "",
        "district": ""
    },
    {
        "area": "",
        "pincode": "",
        "district": ""
    },
    {
        "area": "",
        "pincode": "",
        "district": ""
    },
    {
        "area": "",
        "pincode": "",
        "district": ""
    },
    {
        "area": "",
        "pincode": "",
        "district": ""
    },
    {
        "area": "",
        "pincode": "",
        "district": ""
    },
    {
        "area": "",
        "pincode": "",
        "district": ""
    },
    {
        "area": "",
        "pincode": "",
        "district": ""
    },
    {
        "area": "",
        "pincode": "",
        "district": ""
    },
    {
        "area": "",
        "pincode": "",
        "district": ""
    },
    {
        "area": "",
        "pincode": "",
        "district": ""
    },
    {
        "area": "",
        "pincode": "",
        "district": ""
    },
    {
        "area": "",
        "pincode": "",
        "district": ""
    },
    {
        "area": "",
        "pincode": "",
        "district": ""
    },
    {
        "area": "",
        "pincode": "",
        "district": ""
    },
    {
        "area": "",
        "pincode": "",
        "district": ""
    },
    {
        "area": "",
        "pincode": "",
        "district": ""
    },
    {
        "area": "",
        "pincode": "",
        "district": ""
    },
    {
        "area": "",
        "pincode": "",
        "district": ""
    },
    {
        "area": "",
        "pincode": "",
        "district": ""
    },
    {
        "area": "",
        "pincode": "",
        "district": ""
    },
    {
        "area": "",
        "pincode": "",
        "district": ""
    },
    {
        "area": "",
        "pincode": "",
        "district": ""
    },
    {
        "area": "",
        "pincode": "",
        "district": ""
    },
    {
        "area": "",
        "pincode": "",
        "district": ""
    },
    {
        "area": "",
        "pincode": "",
        "district": ""
    },
    {
        "area": "",
        "pincode": "",
        "district": ""
    },
    {
        "area": "",
        "pincode": "",
        "district": ""
    },
    {
        "area": "",
        "pincode": "",
        "district": ""
    },
    {
        "area": "",
        "pincode": "",
        "district": ""
    },
    {
        "area": "",
        "pincode": "",
        "district": ""
    },
    {
        "area": "",
        "pincode": "",
        "district": ""
    },
    {
        "area": "",
        "pincode": "",
        "district": ""
    },
    {
        "area": "",
        "pincode": "",
        "district": ""
    },
    {
        "area": "",
        "pincode": "",
        "district": ""
    },
    {
        "area": "",
        "pincode": "",
        "district": ""
    },
    {
        "area": "",
        "pincode": "",
        "district": ""
    },
    {
        "area": "",
        "pincode": "",
        "district": ""
    },
    {
        "area": "",
        "pincode": "",
        "district": ""
    },
    {
        "area": "",
        "pincode": "",
        "district": ""
    },
    {
        "area": "",
        "pincode": "",
        "district": ""
    },
    {
        "area": "",
        "pincode": "",
        "district": ""
    },
    {
        "area": "",
        "pincode": "",
        "district": ""
    },
    {
        "area": "",
        "pincode": "",
        "district": ""
    },
    {
        "area": "",
        "pincode": "",
        "district": ""
    },
    {
        "area": "",
        "pincode": "",
        "district": ""
    },
    {
        "area": "",
        "pincode": "",
        "district": ""
    },
    {
        "area": "",
        "pincode": "",
        "district": ""
    },
    {
        "area": "",
        "pincode": "",
        "district": ""
    },
    {
        "area": "",
        "pincode": "",
        "district": ""
    },
    {
        "area": "",
        "pincode": "",
        "district": ""
    },
    {
        "area": "",
        "pincode": "",
        "district": ""
    },
    {
        "area": "",
        "pincode": "",
        "district": ""
    },
    {
        "area": "",
        "pincode": "",
        "district": ""
    },
    {
        "area": "",
        "pincode": "",
        "district": ""
    },
    {
        "area": "",
        "pincode": "",
        "district": ""
    },
    {
        "area": "",
        "pincode": "",
        "district": ""
    },
    {
        "area": "",
        "pincode": "",
        "district": ""
    },
    {
        "area": "",
        "pincode": "",
        "district": ""
    },
    {
        "area": "",
        "pincode": "",
        "district": ""
    },
    {
        "area": "",
        "pincode": "",
        "district": ""
    },
    {
        "area": "",
        "pincode": "",
        "district": ""
    },
    {
        "area": "",
        "pincode": "",
        "district": ""
    },
    {
        "area": "",
        "pincode": "",
        "district": ""
    },
    {
        "area": "",
        "pincode": "",
        "district": ""
    },
    {
        "area": "",
        "pincode": "",
        "district": ""
    },
    {
        "area": "",
        "pincode": "",
        "district": ""
    },
    {
        "area": "",
        "pincode": "",
        "district": ""
    },
    {
        "area": "",
        "pincode": "",
        "district": ""
    },
    {
        "area": "",
        "pincode": "",
        "district": ""
    },
    {
        "area": "",
        "pincode": "",
        "district": ""
    },
    {
        "area": "",
        "pincode": "",
        "district": ""
    },
    {
        "area": "",
        "pincode": "",
        "district": ""
    },
    {
        "area": "",
        "pincode": "",
        "district": ""
    },
    {
        "area": "",
        "pincode": "",
        "district": ""
    },
    {
        "area": "",
        "pincode": "",
        "district": ""
    },
    {
        "area": "",
        "pincode": "",
        "district": ""
    },
    {
        "area": "",
        "pincode": "",
        "district": ""
    },
    {
        "area": "",
        "pincode": "",
        "district": ""
    },
    {
        "area": "",
        "pincode": "",
        "district": ""
    },
    {
        "area": "",
        "pincode": "",
        "district": ""
    },
    {
        "area": "",
        "pincode": "",
        "district": ""
    },
    {
        "area": "",
        "pincode": "",
        "district": ""
    },
    {
        "area": "",
        "pincode": "",
        "district": ""
    },
    {
        "area": "",
        "pincode": "",
        "district": ""
    },
    {
        "area": "",
        "pincode": "",
        "district": ""
    },
    {
        "area": "",
        "pincode": "",
        "district": ""
    },
    {
        "area": "",
        "pincode": "",
        "district": ""
    },
    {
        "area": "",
        "pincode": "",
        "district": ""
    },
    {
        "area": "",
        "pincode": "",
        "district": ""
    },
    {
        "area": "",
        "pincode": "",
        "district": ""
    },
    {
        "area": "",
        "pincode": "",
        "district": ""
    },
    {
        "area": "",
        "pincode": "",
        "district": ""
    },
    {
        "area": "",
        "pincode": "",
        "district": ""
    },
    {
        "area": "",
        "pincode": "",
        "district": ""
    },
    {
        "area": "",
        "pincode": "",
        "district": ""
    },
    {
        "area": "",
        "pincode": "",
        "district": ""
    },
    {
        "area": "",
        "pincode": "",
        "district": ""
    },
    {
        "area": "",
        "pincode": "",
        "district": ""
    },
    {
        "area": "",
        "pincode": "",
        "district": ""
    },
    {
        "area": "",
        "pincode": "",
        "district": ""
    },
    {
        "area": "",
        "pincode": "",
        "district": ""
    },
    {
        "area": "",
        "pincode": "",
        "district": ""
    },
    {
        "area": "",
        "pincode": "",
        "district": ""
    },
    {
        "area": "",
        "pincode": "",
        "district": ""
    },
    {
        "area": "",
        "pincode": "",
        "district": ""
    },
    {
        "area": "",
        "pincode": "",
        "district": ""
    },
    {
        "area": "",
        "pincode": "",
        "district": ""
    },
    {
        "area": "",
        "pincode": "",
        "district": ""
    },
    {
        "area": "",
        "pincode": "",
        "district": ""
    },
    {
        "area": "",
        "pincode": "",
        "district": ""
    },
    {
        "area": "",
        "pincode": "",
        "district": ""
    },
    {
        "area": "",
        "pincode": "",
        "district": ""
    },
    {
        "area": "",
        "pincode": "",
        "district": ""
    },
    {
        "area": "",
        "pincode": "",
        "district": ""
    },
    {
        "area": "",
        "pincode": "",
        "district": ""
    },
    {
        "area": "",
        "pincode": "",
        "district": ""
    },
    {
        "area": "",
        "pincode": "",
        "district": ""
    },
    {
        "area": "",
        "pincode": "",
        "district": ""
    },
    {
        "area": "",
        "pincode": "",
        "district": ""
    },
    {
        "area": "",
        "pincode": "",
        "district": ""
    },
    {
        "area": "",
        "pincode": "",
        "district": ""
    },
    {
        "area": "",
        "pincode": "",
        "district": ""
    },
    {
        "area": "",
        "pincode": "",
        "district": ""
    },
    {
        "area": "",
        "pincode": "",
        "district": ""
    },
    {
        "area": "",
        "pincode": "",
        "district": ""
    },
    {
        "area": "",
        "pincode": "",
        "district": ""
    },
    {
        "area": "",
        "pincode": "",
        "district": ""
    },
    {
        "area": "",
        "pincode": "",
        "district": ""
    },
    {
        "area": "",
        "pincode": "",
        "district": ""
    },
    {
        "area": "",
        "pincode": "",
        "district": ""
    },
    {
        "area": "",
        "pincode": "",
        "district": ""
    },
    {
        "area": "",
        "pincode": "",
        "district": ""
    },
    {
        "area": "",
        "pincode": "",
        "district": ""
    },
    {
        "area": "",
        "pincode": "",
        "district": ""
    },
    {
        "area": "",
        "pincode": "",
        "district": ""
    },
    {
        "area": "",
        "pincode": "",
        "district": ""
    },
    {
        "area": "",
        "pincode": "",
        "district": ""
    },
    {
        "area": "",
        "pincode": "",
        "district": ""
    },
    {
        "area": "",
        "pincode": "",
        "district": ""
    },
    {
        "area": "",
        "pincode": "",
        "district": ""
    },
    {
        "area": "",
        "pincode": "",
        "district": ""
    },
    {
        "area": "",
        "pincode": "",
        "district": ""
    },
    {
        "area": "",
        "pincode": "",
        "district": ""
    },
    {
        "area": "",
        "pincode": "",
        "district": ""
    },
    {
        "area": "",
        "pincode": "",
        "district": ""
    },
    {
        "area": "",
        "pincode": "",
        "district": ""
    },
    {
        "area": "",
        "pincode": "",
        "district": ""
    },
    {
        "area": "",
        "pincode": "",
        "district": ""
    },
    {
        "area": "",
        "pincode": "",
        "district": ""
    },
    {
        "area": "",
        "pincode": "",
        "district": ""
    },
    {
        "area": "",
        "pincode": "",
        "district": ""
    },
    {
        "area": "",
        "pincode": "",
        "district": ""
    },
    {
        "area": "",
        "pincode": "",
        "district": ""
    },
    {
        "area": "",
        "pincode": "",
        "district": ""
    },
    {
        "area": "",
        "pincode": "",
        "district": ""
    },
    {
        "area": "",
        "pincode": "",
        "district": ""
    },
    {
        "area": "",
        "pincode": "",
        "district": ""
    },
    {
        "area": "",
        "pincode": "",
        "district": ""
    },
    {
        "area": "",
        "pincode": "",
        "district": ""
    },
    {
        "area": "",
        "pincode": "",
        "district": ""
    },
    {
        "area": "",
        "pincode": "",
        "district": ""
    },
    {
        "area": "",
        "pincode": "",
        "district": ""
    },
    {
        "area": "",
        "pincode": "",
        "district": ""
    },
    {
        "area": "",
        "pincode": "",
        "district": ""
    },
    {
        "area": "",
        "pincode": "",
        "district": ""
    },
    {
        "area": "",
        "pincode": "",
        "district": ""
    },
    {
        "area": "",
        "pincode": "",
        "district": ""
    },
    {
        "area": "",
        "pincode": "",
        "district": ""
    },
    {
        "area": "",
        "pincode": "",
        "district": ""
    },
    {
        "area": "",
        "pincode": "",
        "district": ""
    },
    {
        "area": "",
        "pincode": "",
        "district": ""
    },
    {
        "area": "",
        "pincode": "",
        "district": ""
    },
    {
        "area": "",
        "pincode": "",
        "district": ""
    },
    {
        "area": "",
        "pincode": "",
        "district": ""
    },
    {
        "area": "",
        "pincode": "",
        "district": ""
    },
    {
        "area": "",
        "pincode": "",
        "district": ""
    },
    {
        "area": "",
        "pincode": "",
        "district": ""
    },
    {
        "area": "",
        "pincode": "",
        "district": ""
    },
    {
        "area": "",
        "pincode": "",
        "district": ""
    },
    {
        "area": "",
        "pincode": "",
        "district": ""
    },
    {
        "area": "",
        "pincode": "",
        "district": ""
    },
    {
        "area": "",
        "pincode": "",
        "district": ""
    },
    {
        "area": "",
        "pincode": "",
        "district": ""
    },
    {
        "area": "",
        "pincode": "",
        "district": ""
    },
    {
        "area": "",
        "pincode": "",
        "district": ""
    },
    {
        "area": "",
        "pincode": "",
        "district": ""
    },
    {
        "area": "",
        "pincode": "",
        "district": ""
    },
    {
        "area": "",
        "pincode": "",
        "district": ""
    },
    {
        "area": "",
        "pincode": "",
        "district": ""
    },
    {
        "area": "",
        "pincode": "",
        "district": ""
    },
    {
        "area": "",
        "pincode": "",
        "district": ""
    },
    {
        "area": "",
        "pincode": "",
        "district": ""
    },
    {
        "area": "",
        "pincode": "",
        "district": ""
    },
    {
        "area": "",
        "pincode": "",
        "district": ""
    },
    {
        "area": "",
        "pincode": "",
        "district": ""
    },
    {
        "area": "",
        "pincode": "",
        "district": ""
    },
    {
        "area": "",
        "pincode": "",
        "district": ""
    },
    {
        "area": "",
        "pincode": "",
        "district": ""
    },
    {
        "area": "",
        "pincode": "",
        "district": ""
    },
    {
        "area": "",
        "pincode": "",
        "district": ""
    },
    {
        "area": "",
        "pincode": "",
        "district": ""
    },
    {
        "area": "",
        "pincode": "",
        "district": ""
    },
    {
        "area": "",
        "pincode": "",
        "district": ""
    },
    {
        "area": "",
        "pincode": "",
        "district": ""
    },
    {
        "area": "",
        "pincode": "",
        "district": ""
    },
    {
        "area": "",
        "pincode": "",
        "district": ""
    },
    {
        "area": "",
        "pincode": "",
        "district": ""
    },
    {
        "area": "",
        "pincode": "",
        "district": ""
    },
    {
        "area": "",
        "pincode": "",
        "district": ""
    },
    {
        "area": "",
        "pincode": "",
        "district": ""
    },
    {
        "area": "",
        "pincode": "",
        "district": ""
    },
    {
        "area": "",
        "pincode": "",
        "district": ""
    },
    {
        "area": "",
        "pincode": "",
        "district": ""
    },
    {
        "area": "",
        "pincode": "",
        "district": ""
    },
    {
        "area": "",
        "pincode": "",
        "district": ""
    },
    {
        "area": "",
        "pincode": "",
        "district": ""
    },
    {
        "area": "",
        "pincode": "",
        "district": ""
    },
    {
        "area": "",
        "pincode": "",
        "district": ""
    },
    {
        "area": "",
        "pincode": "",
        "district": ""
    },
    {
        "area": "",
        "pincode": "",
        "district": ""
    },
    {
        "area": "",
        "pincode": "",
        "district": ""
    },
    {
        "area": "",
        "pincode": "",
        "district": ""
    },
    {
        "area": "",
        "pincode": "",
        "district": ""
    },
    {
        "area": "",
        "pincode": "",
        "district": ""
    },
    {
        "area": "",
        "pincode": "",
        "district": ""
    },
    {
        "area": "",
        "pincode": "",
        "district": ""
    },
    {
        "area": "",
        "pincode": "",
        "district": ""
    },
    {
        "area": "",
        "pincode": "",
        "district": ""
    },
    {
        "area": "",
        "pincode": "",
        "district": ""
    },
    {
        "area": "",
        "pincode": "",
        "district": ""
    },
    {
        "area": "",
        "pincode": "",
        "district": ""
    },
    {
        "area": "",
        "pincode": "",
        "district": ""
    },
    {
        "area": "",
        "pincode": "",
        "district": ""
    },
    {
        "area": "",
        "pincode": "",
        "district": ""
    },
    {
        "area": "",
        "pincode": "",
        "district": ""
    },
    {
        "area": "",
        "pincode": "",
        "district": ""
    },
    {
        "area": "",
        "pincode": "",
        "district": ""
    },
    {
        "area": "",
        "pincode": "",
        "district": ""
    },
    {
        "area": "",
        "pincode": "",
        "district": ""
    },
    {
        "area": "",
        "pincode": "",
        "district": ""
    },
    {
        "area": "",
        "pincode": "",
        "district": ""
    },
    {
        "area": "",
        "pincode": "",
        "district": ""
    },
    {
        "area": "",
        "pincode": "",
        "district": ""
    },
    {
        "area": "",
        "pincode": "",
        "district": ""
    },
    {
        "area": "",
        "pincode": "",
        "district": ""
    },
    {
        "area": "",
        "pincode": "",
        "district": ""
    },
    {
        "area": "",
        "pincode": "",
        "district": ""
    },
    {
        "area": "",
        "pincode": "",
        "district": ""
    },
    {
        "area": "",
        "pincode": "",
        "district": ""
    },
    {
        "area": "",
        "pincode": "",
        "district": ""
    },
    {
        "area": "",
        "pincode": "",
        "district": ""
    },
    {
        "area": "",
        "pincode": "",
        "district": ""
    },
    {
        "area": "",
        "pincode": "",
        "district": ""
    },
    {
        "area": "",
        "pincode": "",
        "district": ""
    },
    {
        "area": "",
        "pincode": "",
        "district": ""
    },
    {
        "area": "",
        "pincode": "",
        "district": ""
    },
    {
        "area": "",
        "pincode": "",
        "district": ""
    },
    {
        "area": "",
        "pincode": "",
        "district": ""
    },
    {
        "area": "",
        "pincode": "",
        "district": ""
    },
    {
        "area": "",
        "pincode": "",
        "district": ""
    },
    {
        "area": "",
        "pincode": "",
        "district": ""
    },
    {
        "area": "",
        "pincode": "",
        "district": ""
    },
    {
        "area": "",
        "pincode": "",
        "district": ""
    },
    {
        "area": "",
        "pincode": "",
        "district": ""
    },
    {
        "area": "",
        "pincode": "",
        "district": ""
    },
    {
        "area": "",
        "pincode": "",
        "district": ""
    },
    {
        "area": "",
        "pincode": "",
        "district": ""
    },
    {
        "area": "",
        "pincode": "",
        "district": ""
    },
    {
        "area": "",
        "pincode": "",
        "district": ""
    },
    {
        "area": "",
        "pincode": "",
        "district": ""
    },
    {
        "area": "",
        "pincode": "",
        "district": ""
    },
    {
        "area": "",
        "pincode": "",
        "district": ""
    },
    {
        "area": "",
        "pincode": "",
        "district": ""
    },
    {
        "area": "",
        "pincode": "",
        "district": ""
    },
    {
        "area": "",
        "pincode": "",
        "district": ""
    },
    {
        "area": "",
        "pincode": "",
        "district": ""
    },
    {
        "area": "",
        "pincode": "",
        "district": ""
    },
    {
        "area": "",
        "pincode": "",
        "district": ""
    },
    {
        "area": "",
        "pincode": "",
        "district": ""
    },
    {
        "area": "",
        "pincode": "",
        "district": ""
    },
    {
        "area": "",
        "pincode": "",
        "district": ""
    },
    {
        "area": "",
        "pincode": "",
        "district": ""
    },
    {
        "area": "",
        "pincode": "",
        "district": ""
    },
    {
        "area": "",
        "pincode": "",
        "district": ""
    },
    {
        "area": "",
        "pincode": "",
        "district": ""
    },
    {
        "area": "",
        "pincode": "",
        "district": ""
    },
    {
        "area": "",
        "pincode": "",
        "district": ""
    },
    {
        "area": "",
        "pincode": "",
        "district": ""
    },
    {
        "area": "",
        "pincode": "",
        "district": ""
    },
    {
        "area": "",
        "pincode": "",
        "district": ""
    },
    {
        "area": "",
        "pincode": "",
        "district": ""
    },
    {
        "area": "",
        "pincode": "",
        "district": ""
    },
    {
        "area": "",
        "pincode": "",
        "district": ""
    },
    {
        "area": "",
        "pincode": "",
        "district": ""
    },
    {
        "area": "",
        "pincode": "",
        "district": ""
    },
    {
        "area": "",
        "pincode": "",
        "district": ""
    },
    {
        "area": "",
        "pincode": "",
        "district": ""
    },
    {
        "area": "",
        "pincode": "",
        "district": ""
    },
    {
        "area": "",
        "pincode": "",
        "district": ""
    },
    {
        "area": "",
        "pincode": "",
        "district": ""
    },
    {
        "area": "",
        "pincode": "",
        "district": ""
    },
    {
        "area": "",
        "pincode": "",
        "district": ""
    },
    {
        "area": "",
        "pincode": "",
        "district": ""
    },
    {
        "area": "",
        "pincode": "",
        "district": ""
    },
    {
        "area": "",
        "pincode": "",
        "district": ""
    },
    {
        "area": "",
        "pincode": "",
        "district": ""
    },
    {
        "area": "",
        "pincode": "",
        "district": ""
    },
    {
        "area": "",
        "pincode": "",
        "district": ""
    },
    {
        "area": "",
        "pincode": "",
        "district": ""
    },
    {
        "area": "",
        "pincode": "",
        "district": ""
    },
    {
        "area": "",
        "pincode": "",
        "district": ""
    },
    {
        "area": "",
        "pincode": "",
        "district": ""
    },
    {
        "area": "",
        "pincode": "",
        "district": ""
    },
    {
        "area": "",
        "pincode": "",
        "district": ""
    },
    {
        "area": "",
        "pincode": "",
        "district": ""
    },
    {
        "area": "",
        "pincode": "",
        "district": ""
    },
    {
        "area": "",
        "pincode": "",
        "district": ""
    },
    {
        "area": "",
        "pincode": "",
        "district": ""
    },
    {
        "area": "",
        "pincode": "",
        "district": ""
    },
    {
        "area": "",
        "pincode": "",
        "district": ""
    },
    {
        "area": "",
        "pincode": "",
        "district": ""
    },
    {
        "area": "",
        "pincode": "",
        "district": ""
    },
    {
        "area": "",
        "pincode": "",
        "district": ""
    },
    {
        "area": "",
        "pincode": "",
        "district": ""
    },
    {
        "area": "",
        "pincode": "",
        "district": ""
    },
    {
        "area": "",
        "pincode": "",
        "district": ""
    },
    {
        "area": "",
        "pincode": "",
        "district": ""
    },
    {
        "area": "",
        "pincode": "",
        "district": ""
    },
    {
        "area": "",
        "pincode": "",
        "district": ""
    },
    {
        "area": "",
        "pincode": "",
        "district": ""
    },
    {
        "area": "",
        "pincode": "",
        "district": ""
    },
    {
        "area": "",
        "pincode": "",
        "district": ""
    },
    {
        "area": "",
        "pincode": "",
        "district": ""
    },
    {
        "area": "",
        "pincode": "",
        "district": ""
    },
    {
        "area": "",
        "pincode": "",
        "district": ""
    },
    {
        "area": "",
        "pincode": "",
        "district": ""
    },
    {
        "area": "",
        "pincode": "",
        "district": ""
    },
    {
        "area": "",
        "pincode": "",
        "district": ""
    },
    {
        "area": "",
        "pincode": "",
        "district": ""
    },
    {
        "area": "",
        "pincode": "",
        "district": ""
    },
    {
        "area": "",
        "pincode": "",
        "district": ""
    },
    {
        "area": "",
        "pincode": "",
        "district": ""
    },
    {
        "area": "",
        "pincode": "",
        "district": ""
    },
    {
        "area": "",
        "pincode": "",
        "district": ""
    },
    {
        "area": "",
        "pincode": "",
        "district": ""
    },
    {
        "area": "",
        "pincode": "",
        "district": ""
    },
    {
        "area": "",
        "pincode": "",
        "district": ""
    },
    {
        "area": "",
        "pincode": "",
        "district": ""
    },
    {
        "area": "",
        "pincode": "",
        "district": ""
    },
    {
        "area": "",
        "pincode": "",
        "district": ""
    },
    {
        "area": "",
        "pincode": "",
        "district": ""
    },
    {
        "area": "",
        "pincode": "",
        "district": ""
    },
    {
        "area": "",
        "pincode": "",
        "district": ""
    },
    {
        "area": "",
        "pincode": "",
        "district": ""
    },
    {
        "area": "",
        "pincode": "",
        "district": ""
    },
    {
        "area": "",
        "pincode": "",
        "district": ""
    },
    {
        "area": "",
        "pincode": "",
        "district": ""
    },
    {
        "area": "",
        "pincode": "",
        "district": ""
    },
    {
        "area": "",
        "pincode": "",
        "district": ""
    },
    {
        "area": "",
        "pincode": "",
        "district": ""
    },
    {
        "area": "",
        "pincode": "",
        "district": ""
    },
    {
        "area": "",
        "pincode": "",
        "district": ""
    },
    {
        "area": "",
        "pincode": "",
        "district": ""
    },
    {
        "area": "",
        "pincode": "",
        "district": ""
    },
    {
        "area": "",
        "pincode": "",
        "district": ""
    },
    {
        "area": "",
        "pincode": "",
        "district": ""
    },
    {
        "area": "",
        "pincode": "",
        "district": ""
    },
    {
        "area": "",
        "pincode": "",
        "district": ""
    },
    {
        "area": "",
        "pincode": "",
        "district": ""
    },
    {
        "area": "",
        "pincode": "",
        "district": ""
    },
    {
        "area": "",
        "pincode": "",
        "district": ""
    },
    {
        "area": "",
        "pincode": "",
        "district": ""
    },
    {
        "area": "",
        "pincode": "",
        "district": ""
    },
    {
        "area": "",
        "pincode": "",
        "district": ""
    },
    {
        "area": "",
        "pincode": "",
        "district": ""
    },
    {
        "area": "",
        "pincode": "",
        "district": ""
    },
    {
        "area": "",
        "pincode": "",
        "district": ""
    },
    {
        "area": "",
        "pincode": "",
        "district": ""
    },
    {
        "area": "",
        "pincode": "",
        "district": ""
    },
    {
        "area": "",
        "pincode": "",
        "district": ""
    },
    {
        "area": "",
        "pincode": "",
        "district": ""
    },
    {
        "area": "",
        "pincode": "",
        "district": ""
    },
    {
        "area": "",
        "pincode": "",
        "district": ""
    },
    {
        "area": "",
        "pincode": "",
        "district": ""
    },
    {
        "area": "",
        "pincode": "",
        "district": ""
    },
    {
        "area": "",
        "pincode": "",
        "district": ""
    },
    {
        "area": "",
        "pincode": "",
        "district": ""
    },
    {
        "area": "",
        "pincode": "",
        "district": ""
    },
    {
        "area": "",
        "pincode": "",
        "district": ""
    },
    {
        "area": "",
        "pincode": "",
        "district": ""
    },
    {
        "area": "",
        "pincode": "",
        "district": ""
    },
    {
        "area": "",
        "pincode": "",
        "district": ""
    },
    {
        "area": "",
        "pincode": "",
        "district": ""
    },
    {
        "area": "",
        "pincode": "",
        "district": ""
    },
    {
        "area": "",
        "pincode": "",
        "district": ""
    },
    {
        "area": "",
        "pincode": "",
        "district": ""
    },
    {
        "area": "",
        "pincode": "",
        "district": ""
    },
    {
        "area": "",
        "pincode": "",
        "district": ""
    },
    {
        "area": "",
        "pincode": "",
        "district": ""
    },
    {
        "area": "",
        "pincode": "",
        "district": ""
    },
    {
        "area": "",
        "pincode": "",
        "district": ""
    },
    {
        "area": "",
        "pincode": "",
        "district": ""
    },
    {
        "area": "",
        "pincode": "",
        "district": ""
    },
    {
        "area": "",
        "pincode": "",
        "district": ""
    },
    {
        "area": "",
        "pincode": "",
        "district": ""
    },
    {
        "area": "",
        "pincode": "",
        "district": ""
    },
    {
        "area": "",
        "pincode": "",
        "district": ""
    },
    {
        "area": "",
        "pincode": "",
        "district": ""
    },
    {
        "area": "",
        "pincode": "",
        "district": ""
    },
    {
        "area": "",
        "pincode": "",
        "district": ""
    },
    {
        "area": "",
        "pincode": "",
        "district": ""
    },
    {
        "area": "",
        "pincode": "",
        "district": ""
    },
    {
        "area": "",
        "pincode": "",
        "district": ""
    },
    {
        "area": "",
        "pincode": "",
        "district": ""
    },
    {
        "area": "",
        "pincode": "",
        "district": ""
    },
    {
        "area": "",
        "pincode": "",
        "district": ""
    },
    {
        "area": "",
        "pincode": "",
        "district": ""
    },
    {
        "area": "",
        "pincode": "",
        "district": ""
    },
    {
        "area": "",
        "pincode": "",
        "district": ""
    },
    {
        "area": "",
        "pincode": "",
        "district": ""
    },
    {
        "area": "",
        "pincode": "",
        "district": ""
    },
    {
        "area": "",
        "pincode": "",
        "district": ""
    },
    {
        "area": "",
        "pincode": "",
        "district": ""
    },
    {
        "area": "",
        "pincode": "",
        "district": ""
    },
    {
        "area": "",
        "pincode": "",
        "district": ""
    },
    {
        "area": "",
        "pincode": "",
        "district": ""
    },
    {
        "area": "",
        "pincode": "",
        "district": ""
    },
    {
        "area": "",
        "pincode": "",
        "district": ""
    },
    {
        "area": "",
        "pincode": "",
        "district": ""
    },
    {
        "area": "",
        "pincode": "",
        "district": ""
    },
    {
        "area": "",
        "pincode": "",
        "district": ""
    },
    {
        "area": "",
        "pincode": "",
        "district": ""
    },
    {
        "area": "",
        "pincode": "",
        "district": ""
    },
    {
        "area": "",
        "pincode": "",
        "district": ""
    },
    {
        "area": "",
        "pincode": "",
        "district": ""
    },
    {
        "area": "",
        "pincode": "",
        "district": ""
    },
    {
        "area": "",
        "pincode": "",
        "district": ""
    },
    {
        "area": "",
        "pincode": "",
        "district": ""
    },
    {
        "area": "",
        "pincode": "",
        "district": ""
    },
    {
        "area": "",
        "pincode": "",
        "district": ""
    },
    {
        "area": "",
        "pincode": "",
        "district": ""
    },
    {
        "area": "",
        "pincode": "",
        "district": ""
    },
    {
        "area": "",
        "pincode": "",
        "district": ""
    },
    {
        "area": "",
        "pincode": "",
        "district": ""
    },
    {
        "area": "",
        "pincode": "",
        "district": ""
    },
    {
        "area": "",
        "pincode": "",
        "district": ""
    },
    {
        "area": "",
        "pincode": "",
        "district": ""
    },
    {
        "area": "",
        "pincode": "",
        "district": ""
    },
    {
        "area": "",
        "pincode": "",
        "district": ""
    },
    {
        "area": "",
        "pincode": "",
        "district": ""
    },
    {
        "area": "",
        "pincode": "",
        "district": ""
    },
    {
        "area": "",
        "pincode": "",
        "district": ""
    },
    {
        "area": "",
        "pincode": "",
        "district": ""
    },
    {
        "area": "",
        "pincode": "",
        "district": ""
    },
    {
        "area": "",
        "pincode": "",
        "district": ""
    },
    {
        "area": "",
        "pincode": "",
        "district": ""
    },
    {
        "area": "",
        "pincode": "",
        "district": ""
    },
    {
        "area": "",
        "pincode": "",
        "district": ""
    },
    {
        "area": "",
        "pincode": "",
        "district": ""
    },
    {
        "area": "",
        "pincode": "",
        "district": ""
    },
    {
        "area": "",
        "pincode": "",
        "district": ""
    },
    {
        "area": "",
        "pincode": "",
        "district": ""
    },
    {
        "area": "",
        "pincode": "",
        "district": ""
    },
    {
        "area": "",
        "pincode": "",
        "district": ""
    },
    {
        "area": "",
        "pincode": "",
        "district": ""
    },
    {
        "area": "",
        "pincode": "",
        "district": ""
    },
    {
        "area": "",
        "pincode": "",
        "district": ""
    },
    {
        "area": "",
        "pincode": "",
        "district": ""
    },
    {
        "area": "",
        "pincode": "",
        "district": ""
    },
    {
        "area": "",
        "pincode": "",
        "district": ""
    },
    {
        "area": "",
        "pincode": "",
        "district": ""
    },
    {
        "area": "",
        "pincode": "",
        "district": ""
    },
    {
        "area": "",
        "pincode": "",
        "district": ""
    },
    {
        "area": "",
        "pincode": "",
        "district": ""
    },
    {
        "area": "",
        "pincode": "",
        "district": ""
    },
    {
        "area": "",
        "pincode": "",
        "district": ""
    },
    {
        "area": "",
        "pincode": "",
        "district": ""
    },
    {
        "area": "",
        "pincode": "",
        "district": ""
    },
    {
        "area": "",
        "pincode": "",
        "district": ""
    },
    {
        "area": "",
        "pincode": "",
        "district": ""
    },
    {
        "area": "",
        "pincode": "",
        "district": ""
    },
    {
        "area": "",
        "pincode": "",
        "district": ""
    },
    {
        "area": "",
        "pincode": "",
        "district": ""
    },
    {
        "area": "",
        "pincode": "",
        "district": ""
    },
    {
        "area": "",
        "pincode": "",
        "district": ""
    },
    {
        "area": "",
        "pincode": "",
        "district": ""
    },
    {
        "area": "",
        "pincode": "",
        "district": ""
    },
    {
        "area": "",
        "pincode": "",
        "district": ""
    },
    {
        "area": "",
        "pincode": "",
        "district": ""
    },
    {
        "area": "",
        "pincode": "",
        "district": ""
    },
    {
        "area": "",
        "pincode": "",
        "district": ""
    },
    {
        "area": "",
        "pincode": "",
        "district": ""
    },
    {
        "area": "",
        "pincode": "",
        "district": ""
    },
    {
        "area": "",
        "pincode": "",
        "district": ""
    },
    {
        "area": "",
        "pincode": "",
        "district": ""
    },
    {
        "area": "",
        "pincode": "",
        "district": ""
    },
    {
        "area": "",
        "pincode": "",
        "district": ""
    },
    {
        "area": "",
        "pincode": "",
        "district": ""
    },
    {
        "area": "",
        "pincode": "",
        "district": ""
    },
    {
        "area": "",
        "pincode": "",
        "district": ""
    },
    {
        "area": "",
        "pincode": "",
        "district": ""
    },
    {
        "area": "",
        "pincode": "",
        "district": ""
    },
    {
        "area": "",
        "pincode": "",
        "district": ""
    },
    {
        "area": "",
        "pincode": "",
        "district": ""
    },
    {
        "area": "",
        "pincode": "",
        "district": ""
    },
    {
        "area": "",
        "pincode": "",
        "district": ""
    },
    {
        "area": "",
        "pincode": "",
        "district": ""
    },
    {
        "area": "",
        "pincode": "",
        "district": ""
    },
    {
        "area": "",
        "pincode": "",
        "district": ""
    }
]